EVENT 00011413
   Date       Time            Lat       Lon    Depth    Ndef Nsta Gap    Mag1  N    Mag2  N    Mag3  N  Author          ID
       rms   O.T. Error    Smajor Sminor Az        Err  mdist   Mdist     Err        Err        Err     Quality

2008/02/19 18:29:24.9      41.832    12.678      9.1      22   14  92  Md 2.2 14  Ml 1.9  9             ITA_NDC   00011413
     0.55    +-  0.12       1.9    1.5   75    +- 1.44    0.06   1.05   +-0.2      +-0.3      +-        m i ke

ITALY (Colli Albani)
Sta    Dist   EvAz     Phase         Date       Time  TRes  Azim  AzRes  Slow  SRes Def  SNR        Amp   Per   Mag1   Mag2 Arr ID
MA9     0.06   193 m   Pg      2008/02/19 18:29:27.4   0.2                          T                                       00150129
MA9     0.06   193 m   Sg      2008/02/19 18:29:29.1   0.2                          T                         Md 2.2        00150130
RDP     0.08   159 m   Pg      2008/02/19 18:29:27.5   0.0                          T                                       00150131
RDP     0.08   159 m   Sg      2008/02/19 18:29:28.9  -0.4                          T              1544   .58 Md 2.0 Ml 2.4 00150132
ROM9    0.12   268 m   Pg      2008/02/19 18:29:28.1  -0.0                          T                                       00150133
ROM9    0.12   268 m   Sg      2008/02/19 18:29:30.7   0.1                          T               884   .62 Md 2.0 Ml 2.2 00150134
MTCE    0.20    14 m   Pg      2008/02/19 18:29:29.3  -0.3                          T                                       00150135
MTCE    0.20    14 m   Sg      2008/02/19 18:29:32.9  -0.2                          T                84   .44 Md 2.0 Ml 1.5 00150136
LAV9    0.15   174 m   Pg      2008/02/19 18:29:29.6   0.8                          T               353   .28 Md 1.9        00150137
CERT    0.25    63 m   Pg      2008/02/19 18:29:30.6  -0.3                          T                                       00150138
CERT    0.25    63 m   Sg      2008/02/19 18:29:36.0   0.8                          T               150   .48 Md 2.0 Ml 1.8 00150139
GIUL    0.51   122 m   Pg      2008/02/19 18:29:35.0  -0.3                          T                                       00150140
GIUL    0.51   122 m   Sg      2008/02/19 18:29:43.4   0.5                          T                28   .36 Md 2.0 Ml 1.5 00150141
MNS     0.55     0 m   Pg      2008/02/19 18:29:35.5  -0.5                          T                                       00150142
MNS     0.55     0 m   Sg      2008/02/19 18:29:44.8   0.6                          T                49   .24 Md 2.4 Ml 1.8 00150143
FIAM    0.54    37 m   Pg      2008/02/19 18:29:35.7  -0.2                          T                70   .63 Md 2.2 Ml 1.9 00150144
PTQR    0.57    70 m   Pg      2008/02/19 18:29:36.1  -0.3                          T                23   .40 Md 2.3        00150145
VVLD    0.70    87 m   Pg      2008/02/19 18:29:38.2  -0.4                          T                                       00150146
VVLD    0.70    87 m   Sg      2008/02/19 18:29:49.1   0.4                          T                32   .46 Md 2.4 Ml 1.7 00150147
LNSS    0.82    19 m   Pg      2008/02/19 18:29:40.6   0.1                          T                48   .26 Md 2.5 Ml 2.1 00150148
SDI     0.85    98 m   Pg      2008/02/19 18:29:40.7  -0.5                          T                 5   .24 Md 2.4        00150149
NRCA    1.05    18 m   Pg      2008/02/19 18:29:46.0   1.4                          T                 3   .12 Md 2.4        00150150

.

EVENT 00011414
   Date       Time            Lat       Lon    Depth    Ndef Nsta Gap    Mag1  N    Mag2  N    Mag3  N  Author          ID
       rms   O.T. Error    Smajor Sminor Az        Err  mdist   Mdist     Err        Err        Err     Quality

2008/02/19 20:38:47.5      44.489     7.212      3.0       6    3 133  Md 1.9  3  Ml 1.4  3             ITA_NDC   00011414
     0.21    +-  0.09       1.0    0.8   30    +-    0    0.03   0.26   +-0.2      +-0.4      +-        m i ke

ITALY (Alpi Cozie)
Sta    Dist   EvAz     Phase         Date       Time  TRes  Azim  AzRes  Slow  SRes Def  SNR        Amp   Per   Mag1   Mag2 Arr ID
DOI     0.03    58 m   Pg      2008/02/19 20:38:48.4  -0.1                          T                                       00150152
DOI     0.03    58 m   Sg      2008/02/19 20:38:49.2   0.1                          T               731   .22 Md 2.0 Ml 1.6 00150153
PZZ     0.07   285 m   Pg      2008/02/19 20:38:49.2  -0.1                          T                                       00150154
PZZ     0.07   285 m   Sg      2008/02/19 20:38:50.5   0.0                          T               624   .24 Md 2.0 Ml 1.9 00150155
STV     0.26   161 m   Pg      2008/02/19 20:38:53.6   0.3                          T                                       00150156
STV     0.26   161 m   Sg      2008/02/19 20:38:57.3  -0.2                          T                12   .17 Md 1.7 Ml 0.8 00150157

.

EVENT 00011415
   Date       Time            Lat       Lon    Depth    Ndef Nsta Gap    Mag1  N    Mag2  N    Mag3  N  Author          ID
       rms   O.T. Error    Smajor Sminor Az        Err  mdist   Mdist     Err        Err        Err     Quality

2008/02/19 20:51:06.1      37.841    14.874     37.2      20   12  82  Md 2.1 10  Ml 1.8  7             ITA_NDC   00011415
     0.50    +-  0.10       3.0    1.8   78    +- 1.62    0.28   0.80   +-0.2      +-0.3      +-        m i ke

ITALY (Etna)
Sta    Dist   EvAz     Phase         Date       Time  TRes  Azim  AzRes  Slow  SRes Def  SNR        Amp   Per   Mag1   Mag2 Arr ID
GALF    0.28   242 m   Pg      2008/02/19 20:51:13.8  -0.4                          T                                       00150159
GALF    0.28   242 m   Sg      2008/02/19 20:51:19.7  -0.4                          T                         Md 2.2        00150160
MMME    0.31    72 m   Pg      2008/02/19 20:51:14.8   0.2                          T                                       00150161
MMME    0.31    72 m   Sg      2008/02/19 20:51:21.3   0.4                          T                31   .39 Md 1.8 Ml 1.5 00150162
ECNV    0.28   208 m   Pg      2008/02/19 20:51:15.1   0.9                          T                                       00150163
MILZ    0.51    33 m   Pg      2008/02/19 20:51:17.7   0.2                          T                                       00150164
MILZ    0.51    33 m   Sg      2008/02/19 20:51:25.2  -0.5                          T                24   .46        Ml 1.5 00150165
IVPL    0.54     9 m   Pg      2008/02/19 20:51:17.9   0.1                          T                                       00150166
IVPL    0.54     9 m   Sg      2008/02/19 20:51:26.1  -0.4                          T                40   .52 Md 2.1 Ml 1.8 00150167
HAGA    0.60   158 m   Pg      2008/02/19 20:51:18.6  -0.1                          T                                       00150168
HAGA    0.60   158 m   Sg      2008/02/19 20:51:27.6  -0.3                          T                30   .31 Md 2.0 Ml 1.7 00150169
AGST    0.65   154 m   Pg      2008/02/19 20:51:19.2  -0.1                          T                                       00150170
AGST    0.65   154 m   Sg      2008/02/19 20:51:28.7  -0.3                          T                37   .50 Md 2.0 Ml 1.8 00150171
SSY     0.70   167 m   Pg      2008/02/19 20:51:19.9  -0.2                          T                                       00150172
SSY     0.70   167 m   Sg      2008/02/19 20:51:30.6   0.3                          T                66   .44 Md 2.2 Ml 2.1 00150173
IFIL    0.76   342 m   Pg      2008/02/19 20:51:20.5  -0.5                          T                                       00150174
IFIL    0.76   342 m   Sg      2008/02/19 20:51:31.6  -0.1                          T                71   .50 Md 2.3 Ml 2.2 00150175
GIB     0.69   283 m   Pg      2008/02/19 20:51:20.5   0.6                          T                         Md 2.2        00150176
MSRU    0.65    50 m   Pg      2008/02/19 20:51:20.6   1.1                          T                         Md 2.0        00150177
IACL    0.80   330 m   Pg      2008/02/19 20:51:21.5  -0.0                          T                         Md 2.2        00150178

.

EVENT 00011416
   Date       Time            Lat       Lon    Depth    Ndef Nsta Gap    Mag1  N    Mag2  N    Mag3  N  Author          ID
       rms   O.T. Error    Smajor Sminor Az        Err  mdist   Mdist     Err        Err        Err     Quality

2008/02/19 21:04:38.2      42.845    12.967     10.0       6    3 177  Md 1.5  3  Ml 0.8  2             ITA_NDC   00011416
     0.21    +-  0.09       1.1    0.8  136    +- 0.72    0.11   0.25   +-0.2      +-0.4      +-        m i ke

ITALY (Val Nerina)
Sta    Dist   EvAz     Phase         Date       Time  TRes  Azim  AzRes  Slow  SRes Def  SNR        Amp   Per   Mag1   Mag2 Arr ID
NRCA    0.11    96 m   Pg      2008/02/19 21:04:41.2  -0.2                          T                                       00150180
NRCA    0.11    96 m   Sg      2008/02/19 21:04:43.9   0.2                          T                10   .08 Md 1.7        00150181
CESI    0.17   344 m   Pg      2008/02/19 21:04:42.6   0.1                          T                                       00150182
CESI    0.17   344 m   Sg      2008/02/19 21:04:45.5  -0.1                          T                 9   .20 Md 1.5 Ml 0.5 00150183
LNSS    0.25   167 m   Pg      2008/02/19 21:04:44.1   0.0                          T                                       00150184
LNSS    0.25   167 m   Sg      2008/02/19 21:04:48.3  -0.0                          T                21   .20 Md 1.4 Ml 1.1 00150185

.

EVENT 00011417
   Date       Time            Lat       Lon    Depth    Ndef Nsta Gap    Mag1  N    Mag2  N    Mag3  N  Author          ID
       rms   O.T. Error    Smajor Sminor Az        Err  mdist   Mdist     Err        Err        Err     Quality

2008/02/19 21:14:44.3      41.834    13.617     10.3       6    3 219  Md 1.9  3  Ml 0.9  2             ITA_NDC   00011417
     0.12    +-  0.17       3.1    1.6  160    +- 1.44    0.04   0.19   +-0.2      +-0.3      +-        m i ke

ITALY (Marsica)
Sta    Dist   EvAz     Phase         Date       Time  TRes  Azim  AzRes  Slow  SRes Def  SNR        Amp   Per   Mag1   Mag2 Arr ID
VVLD    0.04     8 mci Pg      2008/02/19 21:14:46.6   0.1                          T                                       00150187
VVLD    0.04     8 m   Sg      2008/02/19 21:14:48.1  -0.1                          T                91   .24 Md 1.7 Ml 1.2 00150188
POFI    0.14   149 m   Pg      2008/02/19 21:14:47.9  -0.1                          T                                       00150189
POFI    0.14   149 m   Sg      2008/02/19 21:14:50.8   0.1                          T                20   .47 Md 1.8 Ml 0.7 00150190
SDI     0.19   131 m   Pg      2008/02/19 21:14:49.1  -0.0                          T                                       00150191
SDI     0.19   131 m   Sg      2008/02/19 21:14:52.5  -0.0                          T                 5   .24 Md 2.0        00150192

.

EVENT 00011418
   Date       Time            Lat       Lon    Depth    Ndef Nsta Gap    Mag1  N    Mag2  N    Mag3  N  Author          ID
       rms   O.T. Error    Smajor Sminor Az        Err  mdist   Mdist     Err        Err        Err     Quality

2008/02/19 21:37:32.4      37.751    14.133      8.7      13    8 244  Md 2.4  7  Ml 2.2  7             ITA_NDC   00011418
     0.37    +-  0.39       5.8    1.3   41    +- 1.98    0.20   1.20   +-0.2      +-0.2      +-        m i ke

ITALY (Madonie)
Sta    Dist   EvAz     Phase         Date       Time  TRes  Azim  AzRes  Slow  SRes Def  SNR        Amp   Per   Mag1   Mag2 Arr ID
CSLB    0.20   342 m   Pg      2008/02/19 21:37:37.1  -0.0                          T                                       00150194
CSLB    0.20   342 m   Sg      2008/02/19 21:37:40.5  -0.0                          T               173   .32 Md 2.3        00150195
GIB     0.25   341 m   Pg      2008/02/19 21:37:38.0  -0.3                          T                                       00150196
GIB     0.25   341 m   Sg      2008/02/19 21:37:42.7   0.1                          T               226   .48 Md 2.4 Ml 2.0 00150197
GALF    0.34    97 m   Pg      2008/02/19 21:37:40.4   0.3                          T                                       00150198
GALF    0.34    97 m   Sg      2008/02/19 21:37:46.1   0.4                          T               226   .48 Md 2.4 Ml 2.2 00150199
IACL    0.80    13 m   Pg      2008/02/19 21:37:48.2   0.3                          T                                       00150200
IACL    0.80    13 m   Sg      2008/02/19 21:37:59.6   0.4                          T                59   .47 Md 2.3 Ml 2.1 00150201
IFIL    0.88    23 m   Pg      2008/02/19 21:37:49.2  -0.1                          T                                       00150202
IFIL    0.88    23 m   Sg      2008/02/19 21:38:00.9  -0.6                          T                78   .64 Md 2.7 Ml 2.2 00150203
IVPL    0.91    47 m   Pg      2008/02/19 21:37:50.0   0.2                          T                42   .46 Md 2.3 Ml 2.0 00150204
ILLI    0.95    42 m   Pg      2008/02/19 21:37:50.5   0.1                          T               173   .53 Md 2.3 Ml 2.6 00150205
MSRU    1.20    64 m   Pg      2008/02/19 21:37:54.2  -0.4                          T                67   1.2        Ml 2.0 00150206

.

EVENT 00011419
   Date       Time            Lat       Lon    Depth    Ndef Nsta Gap    Mag1  N    Mag2  N    Mag3  N  Author          ID
       rms   O.T. Error    Smajor Sminor Az        Err  mdist   Mdist     Err        Err        Err     Quality

2008/02/19 21:58:49.0      43.511    13.004     34.9      40   29  55         0  Ml 2.5 23             ITA_NDC   00011419
     0.45    +-  0.09       1.8    1.4   24    +- 1.08    0.05   1.29   +-0.0      +-0.4      +-        m i ke

ITALY (Zona Macerata)
Sta    Dist   EvAz     Phase         Date       Time  TRes  Azim  AzRes  Slow  SRes Def  SNR        Amp   Per   Mag1   Mag2 Arr ID
ARVD    0.05   254 mdi Pg      2008/02/19 21:58:54.5  -0.4                          T                                       00150208
ARVD    0.05   254 m   Sg      2008/02/19 21:58:59.2  -0.1                          T               379   .16        Ml 2.4 00150209
CING    0.19   134 mci Pg      2008/02/19 21:58:55.7  -0.2                          T                                       00150210
CING    0.19   134 m   Sg      2008/02/19 21:59:01.5   0.5                          T              1133   .48        Ml 2.9 00150211
FSSB    0.24   318 mdi Pg      2008/02/19 21:58:55.9  -0.5                          T                                       00150212
FSSB    0.24   318 m   Sg      2008/02/19 21:59:01.8  -0.1                          T               999   .32        Ml 2.9 00150213
SNTG    0.26   190 mdi Pg      2008/02/19 21:58:56.4  -0.2                          T                                       00150214
SNTG    0.26   190 m   Sg      2008/02/19 21:59:02.5   0.4                          T               169   .20               00150215
SENI    0.26    40 mci Pg      2008/02/19 21:58:56.7   0.1                          T                                       00150216
SENI    0.26    40 m   Sg      2008/02/19 21:59:03.1   1.0                          T               734   .24               00150217
PIEI    0.34   274 mdi Pg      2008/02/19 21:58:57.1  -0.6                          T                                       00150218
PIEI    0.34   274 m   Sg      2008/02/19 21:59:04.1   0.2                          T               402   .36        Ml 2.6 00150219
MURB    0.43   235 m   Pg      2008/02/19 21:58:58.6  -0.3                          T                                       00150220
MURB    0.43   235 m   Sg      2008/02/19 21:59:06.6   0.6                          T              1394   .28        Ml 3.2 00150221
AOI     0.44    85 mci Pg      2008/02/19 21:58:58.6  -0.3                          T                                       00150222
AOI     0.44    85 m   Sg      2008/02/19 21:59:06.7   0.4                          T               441   .36        Ml 2.7 00150223
PESA    0.45   345 m   Pg      2008/02/19 21:58:58.7  -0.4                          T                                       00150224
PESA    0.45   345 m   Sg      2008/02/19 21:59:06.6   0.1                          T               316   .28        Ml 2.6 00150225
CESI    0.51   188 m   Pg      2008/02/19 21:58:59.7  -0.3                          T                                       00150226
CESI    0.51   188 m   Sg      2008/02/19 21:59:08.8   0.6                          T               116   .34        Ml 2.2 00150227
ASS     0.52   210 m   Pg      2008/02/19 21:58:59.8  -0.3                          T               163   .52               00150228
BADI    0.55   270 m   Pg      2008/02/19 21:59:00.5  -0.2                          T                                       00150229
BADI    0.55   270 m   Sg      2008/02/19 21:59:10.5   1.2                          T               376   .42        Ml 2.8 00150230
CDCA    0.56   265 m   Pg      2008/02/19 21:59:01.1   0.3                          T               113   .32               00150231
RSM     0.58   317 m   Pg      2008/02/19 21:59:01.1   0.0                          T                29   .66        Ml 1.6 00150232
NRCA    0.68   173 m   Pg      2008/02/19 21:59:02.4  -0.4                          T                58   .32               00150233
CAFI    0.77   257 mci Pg      2008/02/19 21:59:04.3   0.1                          T                                       00150234
OFFI    0.76   139 m   Pg      2008/02/19 21:59:04.3   0.4                          T               355   .50        Ml 2.9 00150235
CRE     0.77   278 m   Pg      2008/02/19 21:59:04.6   0.4                          T                77   .42        Ml 2.2 00150236
LNSS    0.91   178 m   Pg      2008/02/19 21:59:06.1   0.1                          T               344   .18        Ml 3.0 00150237
SFI     0.92   296 m   Pg      2008/02/19 21:59:06.5   0.2                          T                81   .42        Ml 2.4 00150238
ASQU    0.92   288 m   Pg      2008/02/19 21:59:06.7   0.5                          T               185   .70        Ml 2.6 00150239
TERO    0.99   154 m   Pg      2008/02/19 21:59:06.8  -0.4                          T               100   .50        Ml 2.5 00150240
CAMP    1.02   163 m   Pg      2008/02/19 21:59:07.4  -0.1                          T                19   .56        Ml 1.8 00150241
SACS    1.04   231 m   Pg      2008/02/19 21:59:07.7  -0.1                          T                65   .63        Ml 2.3 00150242
MNS     1.15   192 m   Pg      2008/02/19 21:59:09.6   0.3                          T                86   .48        Ml 2.5 00150243
CSNT    1.24   269 m   Pg      2008/02/19 21:59:10.4  -0.3                          T                42   .84        Ml 2.1 00150244
VCEL    1.27   151 m   Pg      2008/02/19 21:59:10.9  -0.2                          T               102   .80        Ml 2.5 00150245
ARCI    1.29   240 m   Pg      2008/02/19 21:59:11.2  -0.1                          T                13   .32        Ml 1.8 00150246
FIAM    1.24   176 m   Pg      2008/02/19 21:59:11.6   0.9                          T                61   .74        Ml 2.3 00150247

.

