EVENT 00011428
   Date       Time            Lat       Lon    Depth    Ndef Nsta Gap    Mag1  N    Mag2  N    Mag3  N  Author          ID
       rms   O.T. Error    Smajor Sminor Az        Err  mdist   Mdist     Err        Err        Err     Quality

2008/02/20 02:23:29.8      41.739    14.169     13.4      19   11 120  Md 2.1 11  Ml 1.3  7             ITA_NDC   00011428
     0.28    +-  0.08       1.5    1.1   19    +-  1.8    0.04   0.46   +-0.2      +-0.3      +-        m i ke

ITALY (Sannio)
Sta    Dist   EvAz     Phase         Date       Time  TRes  Azim  AzRes  Slow  SRes Def  SNR        Amp   Per   Mag1   Mag2 Arr ID
RNI2    0.04   200 m   Pg      2008/02/20 02:23:32.6   0.0                          T                                       00150366
RNI2    0.04   200 m   Sg      2008/02/20 02:23:34.8   0.2                          T               175   .10 Md 2.0 Ml 1.6 00150367
MIDA    0.12   147 m   Pg      2008/02/20 02:23:33.3  -0.1                          T                                       00150368
MIDA    0.12   147 m   Sg      2008/02/20 02:23:35.4  -0.6                          T               113   .23 Md 2.0 Ml 1.5 00150369
CERA    0.18   219 m   Pg      2008/02/20 02:23:34.5   0.0                          T                                       00150370
CERA    0.18   219 m   Sg      2008/02/20 02:23:38.0   0.2                          T                29   .60 Md 2.3 Ml 1.0 00150371
SDI     0.27   264 m   Pg      2008/02/20 02:23:35.9   0.0                          T                                       00150372
SDI     0.27   264 m   Sg      2008/02/20 02:23:40.5   0.2                          T                43   .16 Md 2.3        00150373
TRIV    0.28    84 m   Pg      2008/02/20 02:23:36.1  -0.1                          T                                       00150374
TRIV    0.28    84 m   Sg      2008/02/20 02:23:41.4   0.6                          T                         Md 2.1        00150375
INTR    0.34   324 m   Pg      2008/02/20 02:23:36.8  -0.2                          T                                       00150376
INTR    0.34   324 m   Sg      2008/02/20 02:23:42.2  -0.1                          T                         Md 1.8        00150377
VAGA    0.33   171 m   Pg      2008/02/20 02:23:36.9   0.1                          T                22   .23 Md 2.2 Ml 1.2 00150378
POFI    0.34   267 m   Pg      2008/02/20 02:23:37.2   0.0                          T                                       00150379
POFI    0.34   267 m   Sg      2008/02/20 02:23:42.7   0.2                          T                19   .36 Md 1.7 Ml 1.1 00150380
SGG     0.39   156 m   Pg      2008/02/20 02:23:38.1   0.3                          T                13   .78 Md 2.2 Ml 0.9 00150381
VVLD    0.43   288 m   Pg      2008/02/20 02:23:38.3  -0.3                          T                                       00150382
VVLD    0.43   288 m   Sg      2008/02/20 02:23:44.9  -0.1                          T                47   .42 Md 2.3 Ml 1.6 00150383
PTRJ    0.46   144 m   Pg      2008/02/20 02:23:39.1  -0.1                          T                         Md 2.2        00150384

.

EVENT 00011429
   Date       Time            Lat       Lon    Depth    Ndef Nsta Gap    Mag1  N    Mag2  N    Mag3  N  Author          ID
       rms   O.T. Error    Smajor Sminor Az        Err  mdist   Mdist     Err        Err        Err     Quality

2008/02/20 02:30:24.9      42.098    13.334      8.3       6    3 261  Md 1.8  3  Ml 0.7  1             ITA_NDC   00011429
     0.34    +-  0.53       6.9    1.8  101    +- 1.62    0.09   0.31   +-0.2      +-0.0      +-        m i ke

ITALY (Piana del Fucino)
Sta    Dist   EvAz     Phase         Date       Time  TRes  Azim  AzRes  Slow  SRes Def  SNR        Amp   Per   Mag1   Mag2 Arr ID
PTQR    0.09   147 m   Pg      2008/02/20 02:30:27.8   0.3                          T                                       00150386
PTQR    0.09   147 m   Sg      2008/02/20 02:30:29.3  -0.2                          T                         Md 1.7        00150387
FAGN    0.25    48 m   Pg      2008/02/20 02:30:30.7   0.0                          T                                       00150388
FAGN    0.25    48 m   Sg      2008/02/20 02:30:34.9  -0.0                          T                         Md 1.9        00150389
VVLD    0.31   137 m   Pg      2008/02/20 02:30:31.8  -0.3                          T                                       00150390
VVLD    0.31   137 m   Sg      2008/02/20 02:30:37.5   0.2                          T                 9   .68 Md 1.6 Ml 0.7 00150391

.

EVENT 00011430
   Date       Time            Lat       Lon    Depth    Ndef Nsta Gap    Mag1  N    Mag2  N    Mag3  N  Author          ID
       rms   O.T. Error    Smajor Sminor Az        Err  mdist   Mdist     Err        Err        Err     Quality

2008/02/20 02:44:40.9      37.846    14.223      2.6      11    9 189  Md 2.4  9  Ml 2.0  7             ITA_NDC   00011430
     0.38    +-  0.22       3.8    1.2   23    +-    0    0.16   1.09   +-0.3      +-0.2      +-        m i ke

ITALY (Madonie)
Sta    Dist   EvAz     Phase         Date       Time  TRes  Azim  AzRes  Slow  SRes Def  SNR        Amp   Per   Mag1   Mag2 Arr ID
CSLB    0.16   305 m   Pg      2008/02/20 02:44:44.6   0.1                          T                                       00150393
CSLB    0.16   305 m   Sg      2008/02/20 02:44:47.7   0.5                          T               142   .20 Md 2.0        00150394
GIB     0.21   313 m   Pg      2008/02/20 02:44:45.6  -0.1                          T                                       00150395
GIB     0.21   313 m   Sg      2008/02/20 02:44:48.6  -0.6                          T               182   .46 Md 2.3 Ml 1.8 00150396
GALF    0.30   116 m   Pg      2008/02/20 02:44:47.7   0.0                          T               209   .53 Md 2.3 Ml 2.0 00150397
IACL    0.70     9 m   Pg      2008/02/20 02:44:55.7   0.3                          T                65   .66 Md 2.5 Ml 2.0 00150398
IFIL    0.77    20 m   Pg      2008/02/20 02:44:56.4  -0.2                          T                53   .41 Md 2.7 Ml 2.0 00150399
IVPL    0.80    48 m   Pg      2008/02/20 02:44:57.3   0.2                          T                46   .72 Md 2.4 Ml 1.9 00150400
ILLI    0.83    43 m   Pg      2008/02/20 02:44:58.1   0.4                          T               134   .63 Md 2.4 Ml 2.4 00150401
SLNA    0.86    34 m   Pg      2008/02/20 02:44:58.1  -0.1                          T                33   .28 Md 3.0        00150402
MSRU    1.09    67 m   Pg      2008/02/20 02:45:01.8  -0.4                          T                24   .57 Md 1.9 Ml 1.9 00150403

.

EVENT 00011431
   Date       Time            Lat       Lon    Depth    Ndef Nsta Gap    Mag1  N    Mag2  N    Mag3  N  Author          ID
       rms   O.T. Error    Smajor Sminor Az        Err  mdist   Mdist     Err        Err        Err     Quality

2008/02/20 02:51:49.6      42.631    13.092     12.0      12    6 106  Md 1.9  6  Ml 1.0  4             ITA_NDC   00011431
     0.19    +-  0.07       1.0    0.7  120    +- 1.62    0.05   0.40   +-0.2      +-0.1      +-        m i ke

ITALY (Monti Reatini)
Sta    Dist   EvAz     Phase         Date       Time  TRes  Azim  AzRes  Slow  SRes Def  SNR        Amp   Per   Mag1   Mag2 Arr ID
LNSS    0.05   234 m   Pg      2008/02/20 02:51:52.4   0.1                          T                                       00150405
LNSS    0.05   234 m   Sg      2008/02/20 02:51:54.0  -0.1                          T                         Md 2.1        00150406
NRCA    0.20     5 mci Pg      2008/02/20 02:51:54.6   0.0                          T                                       00150407
NRCA    0.20     5 m   Sg      2008/02/20 02:51:57.9  -0.3                          T                         Md 2.1        00150408
FIAM    0.36   177 m   Pg      2008/02/20 02:51:57.2  -0.1                          T                                       00150409
FIAM    0.36   177 m   Sg      2008/02/20 02:52:02.9   0.0                          T                13   .28 Md 1.8 Ml 1.0 00150410
MNS     0.39   231 m   Pg      2008/02/20 02:51:57.6  -0.2                          T                                       00150411
MNS     0.39   231 m   Sg      2008/02/20 02:52:03.9   0.2                          T                 9   .22 Md 1.8 Ml 0.9 00150412
TERO    0.38    91 m   Pg      2008/02/20 02:51:57.6   0.1                          T                                       00150413
TERO    0.38    91 m   Sg      2008/02/20 02:52:03.5   0.2                          T                14   .20 Md 1.7 Ml 1.1 00150414
CESI    0.40   340 m   Pg      2008/02/20 02:51:57.9   0.0                          T                                       00150415
CESI    0.40   340 m   Sg      2008/02/20 02:52:04.1   0.1                          T                 7   .20 Md 2.0 Ml 0.8 00150416

.

EVENT 00011432
   Date       Time            Lat       Lon    Depth    Ndef Nsta Gap    Mag1  N    Mag2  N    Mag3  N  Author          ID
       rms   O.T. Error    Smajor Sminor Az        Err  mdist   Mdist     Err        Err        Err     Quality

2008/02/20 02:54:41.1      41.806    13.617      7.6      14    7  95  Md 2.0  7  Ml 1.3  3             ITA_NDC   00011432
     0.44    +-  0.12       2.1    1.3   44    +-  1.8    0.06   0.37   +-0.2      +-0.5      +-        m i ke

ITALY (Monti Ernici-Simbruini)
Sta    Dist   EvAz     Phase         Date       Time  TRes  Azim  AzRes  Slow  SRes Def  SNR        Amp   Per   Mag1   Mag2 Arr ID
VVLD    0.06     4 mci Pg      2008/02/20 02:54:43.0  -0.2                          T                                       00150418
VVLD    0.06     4 m   Sg      2008/02/20 02:54:44.4  -0.4                          T               702   .14 Md 2.2 Ml 2.0 00150419
POFI    0.11   141 m   Pg      2008/02/20 02:54:44.1   0.0                          T                                       00150420
POFI    0.11   141 m   Sg      2008/02/20 02:54:46.9   0.6                          T                56   .63 Md 2.0 Ml 1.0 00150421
SDI     0.17   123 m   Pg      2008/02/20 02:54:45.2  -0.1                          T                                       00150422
SDI     0.17   123 m   Sg      2008/02/20 02:54:48.1  -0.2                          T                28   .32 Md 2.4        00150423
INTR    0.30    46 m   Pg      2008/02/20 02:54:47.7  -0.2                          T                                       00150424
INTR    0.30    46 m   Sg      2008/02/20 02:54:53.0   0.1                          T                         Md 1.6        00150425
PTQR    0.27   323 m   Pg      2008/02/20 02:54:47.9   0.6                          T                                       00150426
PTQR    0.27   323 m   Sg      2008/02/20 02:54:52.2   0.4                          T                20   .24 Md 2.0        00150427
GIUL    0.37   228 m   Pg      2008/02/20 02:54:48.5  -0.7                          T                                       00150428
GIUL    0.37   228 m   Sg      2008/02/20 02:54:55.3   0.1                          T                29   1.2 Md 1.9 Ml 0.9 00150429
CERA    0.36   125 m   Pg      2008/02/20 02:54:49.1  -0.1                          T                                       00150430
CERA    0.36   125 m   Sg      2008/02/20 02:54:55.6   0.4                          T                         Md 2.0        00150431

.

EVENT 00011433
   Date       Time            Lat       Lon    Depth    Ndef Nsta Gap    Mag1  N    Mag2  N    Mag3  N  Author          ID
       rms   O.T. Error    Smajor Sminor Az        Err  mdist   Mdist     Err        Err        Err     Quality

2008/02/20 03:48:28.0      42.335    13.438      8.9      17   10  69  Md 2.1 10  Ml 1.2  5             ITA_NDC   00011433
     0.50    +-  0.12       1.8    1.5   42    +- 1.26    0.03   0.55   +-0.2      +-0.4      +-        m i ke

ITALY (Aquilano)
Sta    Dist   EvAz     Phase         Date       Time  TRes  Azim  AzRes  Slow  SRes Def  SNR        Amp   Per   Mag1   Mag2 Arr ID
AQU     0.03   306 mci Pg      2008/02/20 03:48:30.0   0.1                          T                                       00150433
AQU     0.03   306 m   Sg      2008/02/20 03:48:30.9  -0.5                          T               117   .16 Md 2.3        00150434
FAGN    0.13   122 m   Pg      2008/02/20 03:48:31.5   0.1                          T                                       00150435
FAGN    0.13   122 m   Sg      2008/02/20 03:48:34.1   0.2                          T               358   .32 Md 2.7 Ml 2.0 00150436
CAMP    0.20   354 m   Pg      2008/02/20 03:48:33.1   0.2                          T                                       00150437
CAMP    0.20   354 m   Sg      2008/02/20 03:48:36.7   0.2                          T                10   .72 Md 1.9 Ml 0.5 00150438
FIAM    0.25   254 m   Pg      2008/02/20 03:48:34.0   0.2                          T                                       00150439
FIAM    0.25   254 m   Sg      2008/02/20 03:48:38.0   0.0                          T                26   .48 Md 2.1 Ml 1.1 00150440
TERO    0.31    23 m   Pg      2008/02/20 03:48:34.6  -0.5                          T                                       00150441
TERO    0.31    23 m   Sg      2008/02/20 03:48:39.5  -0.8                          T                31   .50 Md 2.1 Ml 1.3 00150442
VCEL    0.30    78 m   Pg      2008/02/20 03:48:34.7  -0.2                          T                                       00150443
VCEL    0.30    78 m   Sg      2008/02/20 03:48:40.9   0.9                          T                38   .26 Md 2.0 Ml 1.4 00150444
PTQR    0.31   185 m   Pg      2008/02/20 03:48:35.3   0.2                          T                20   .44 Md 2.0        00150445
LNSS    0.40   313 m   Pg      2008/02/20 03:48:36.6   0.1                          T                         Md 2.0        00150446
VVLD    0.48   163 m   Pg      2008/02/20 03:48:37.4  -0.6                          T                         Md 2.0        00150447
NRCA    0.55   335 m   Pg      2008/02/20 03:48:39.2  -0.0                          T                                       00150448
NRCA    0.55   335 m   Sg      2008/02/20 03:48:48.1   0.7                          T                 1   .12 Md 2.2        00150449

.

EVENT 00011434
   Date       Time            Lat       Lon    Depth    Ndef Nsta Gap    Mag1  N    Mag2  N    Mag3  N  Author          ID
       rms   O.T. Error    Smajor Sminor Az        Err  mdist   Mdist     Err        Err        Err     Quality

2008/02/20 04:05:05.6      43.877     7.826      7.9      31   25 232  Md 2.9 24  Ml 2.8 19             ITA_NDC   00011434
     0.82    +-  0.36       5.7    2.3    6    +-  1.8    0.06   3.54   +-0.2      +-0.2      +-        m i ke

ITALY (Riviera di ponente)
Sta    Dist   EvAz     Phase         Date       Time  TRes  Azim  AzRes  Slow  SRes Def  SNR        Amp   Per   Mag1   Mag2 Arr ID
IMI     0.06    55 mci Pg      2008/02/20 04:05:07.8   0.1                          T                                       00150451
IMI     0.06    55 m   Sg      2008/02/20 04:05:09.0  -0.2                          T              5390   .28 Md 2.5 Ml 2.9 00150452
STV     0.51   316 m   Pg      2008/02/20 04:05:17.1   0.8                          T                                       00150453
STV     0.51   316 m   Sg      2008/02/20 04:05:23.8  -0.3                          T               243   .30 Md 3.0 Ml 2.5 00150454
QLNO    0.58    40 m   Pg      2008/02/20 04:05:17.4  -0.0                          T                                       00150455
QLNO    0.58    40 m   Sg      2008/02/20 04:05:25.8  -0.3                          T               763   .35 Md 2.5 Ml 3.0 00150456
DOI     0.75   327 m   Pg      2008/02/20 04:05:20.3   0.0                          T                                       00150457
DOI     0.75   327 m   Sg      2008/02/20 04:05:30.8  -0.3                          T               504   .45 Md 3.0 Ml 3.0 00150458
PZZ     0.81   321 m   Pg      2008/02/20 04:05:21.5   0.2                          T                                       00150459
PZZ     0.81   321 m   Sg      2008/02/20 04:05:32.4  -0.4                          T               271   .50 Md 3.0 Ml 2.7 00150460
PCP     0.84    38 m   Pg      2008/02/20 04:05:22.0   0.2                          T                                       00150461
PCP     0.84    38 m   Sg      2008/02/20 04:05:34.2   0.5                          T               642   .39 Md 2.9 Ml 3.2 00150462
BLB     1.04   337 m   Pg      2008/02/20 04:05:24.9  -0.3                          T               130   .19 Md 2.8 Ml 2.7 00150463
SC2M    1.33    66 mci Pg      2008/02/20 04:05:29.4  -0.9                          T                85   .55 Md 2.8 Ml 2.6 00150464
MONC    1.20     3 m   Pg      2008/02/20 04:05:29.6   1.6                          T               208   .33 Md 3.0 Ml 2.9 00150465
RSP     1.33   343 m   Pg      2008/02/20 04:05:29.6  -0.7                          T                65   .20 Md 2.9 Ml 2.5 00150466
BNI     1.43   326 m   Pg      2008/02/20 04:05:32.0   0.0                          T               140   .96 Md 2.8 Ml 2.6 00150467
BOB     1.46    52 m   Pg      2008/02/20 04:05:32.5  -0.0                          T                68   .57 Md 2.8 Ml 2.5 00150468
TRAV    1.64   358 m   Pg      2008/02/20 04:05:34.4  -0.9                          T                40   .35 Md 3.0 Ml 2.5 00150469
LSD     1.66   343 m   Pg      2008/02/20 04:05:35.1  -0.6                          T                68   .33 Md 3.0 Ml 2.7 00150470
ORO     1.75     4 m   Pg      2008/02/20 04:05:37.1   0.2                          T                27   .24 Md 3.2        00150471
BDI     2.00    84 m   Pg      2008/02/20 04:05:39.0  -1.4                          T                         Md 2.8        00150472
ERBM    1.93    73 m   Pg      2008/02/20 04:05:39.5   0.0                          T               436   3.2 Md 2.5 Ml 2.5 00150473
MRGE    1.97   344 m   Pg      2008/02/20 04:05:40.4   0.4                          T                47   .59 Md 2.9 Ml 2.6 00150474
MMK     2.18     3 m   Pg      2008/02/20 04:05:43.0   0.2                          T                         Md 2.9        00150475
MUGIO   2.22    22 m   Pg      2008/02/20 04:05:44.1   0.7                          T                         Md 3.0        00150476
EMV     2.28   344 m   Pg      2008/02/20 04:05:46.4   2.1                          T                         Md 2.5        00150477
MAGA    2.75    45 m   Pg      2008/02/20 04:05:51.1   0.4                          T                91   .60        Ml 3.2 00150478
TUE     2.81    22 m   Pg      2008/02/20 04:05:53.0   1.5                          T                17   .39 Md 3.2 Ml 2.6 00150479
MABI    2.89    40 m   Pg      2008/02/20 04:05:53.5   0.8                          T                         Md 3.2        00150480
APPI    3.54    41 m   Pg      2008/02/20 04:06:02.9   1.3                          T                23   .40 Md 3.3 Ml 3.0 00150481

.

