EVENT 00011395
   Date       Time            Lat       Lon    Depth    Ndef Nsta Gap    Mag1  N    Mag2  N    Mag3  N  Author          ID
       rms   O.T. Error    Smajor Sminor Az        Err  mdist   Mdist     Err        Err        Err     Quality

2008/02/18 09:39:05.8      41.634    15.685     15.6       6    3 234  Md 1.9  3  Ml 1.9  1             ITA_NDC   00011395
     0.21    +-  0.20       1.4    1.1    1    +- 1.62    0.08   0.19   +-0.2      +-0.0      +-        m i ke

ITALY (Tavoliere delle Puglie)
Sta    Dist   EvAz     Phase         Date       Time  TRes  Azim  AzRes  Slow  SRes Def  SNR        Amp   Per   Mag1   Mag2 Arr ID
RGNG    0.08   299 m   Pg      2008/02/18 09:39:09.2  -0.1                          T                                       00149927
RGNG    0.08   299 m   Sg      2008/02/18 09:39:12.0   0.2                          T                         Md 2.1        00149928
SGRT    0.13    20 m   Pg      2008/02/18 09:39:09.8   0.0                          T                                       00149929
SGRT    0.13    20 m   Sg      2008/02/18 09:39:12.7  -0.0                          T               264   .32 Md 1.8 Ml 1.9 00149930
MSAG    0.19    65 m   Pg      2008/02/18 09:39:10.8   0.1                          T                                       00149931
MSAG    0.19    65 m   Sg      2008/02/18 09:39:14.1  -0.1                          T                         Md 1.8        00149932

.

EVENT 00011396
   Date       Time            Lat       Lon    Depth    Ndef Nsta Gap    Mag1  N    Mag2  N    Mag3  N  Author          ID
       rms   O.T. Error    Smajor Sminor Az        Err  mdist   Mdist     Err        Err        Err     Quality

2008/02/18 12:13:24.6      41.653    15.606     12.0       6    3 251  Md 1.8  3  Ml 1.7  2             ITA_NDC   00011396
     0.10    +-  0.14       2.2    1.1  125    +-  1.8    0.03   0.23   +-0.2      +-0.1      +-        m i ke

ITALY (Tavoliere delle Puglie)
Sta    Dist   EvAz     Phase         Date       Time  TRes  Azim  AzRes  Slow  SRes Def  SNR        Amp   Per   Mag1   Mag2 Arr ID
RGNG    0.03   326 m   Pg      2008/02/18 12:13:27.1  -0.0                          T                                       00149934
RGNG    0.03   326 m   Sg      2008/02/18 12:13:28.9   0.0                          T                         Md 1.9        00149935
SGRT    0.14    45 m   Pg      2008/02/18 12:13:28.6   0.1                          T                                       00149936
SGRT    0.14    45 m   Sg      2008/02/18 12:13:31.3  -0.1                          T               153   .59 Md 1.5 Ml 1.6 00149937
MSAG    0.23    75 m   Pg      2008/02/18 12:13:30.0  -0.0                          T                                       00149938
MSAG    0.23    75 m   Sg      2008/02/18 12:13:34.1   0.1                          T               108   .30 Md 1.8 Ml 1.7 00149939

.

EVENT 00011397
   Date       Time            Lat       Lon    Depth    Ndef Nsta Gap    Mag1  N    Mag2  N    Mag3  N  Author          ID
       rms   O.T. Error    Smajor Sminor Az        Err  mdist   Mdist     Err        Err        Err     Quality

2008/02/18 13:46:31.7      44.567    10.224     23.3      10    5 241  Md 2.0  5  Ml 1.6  4             ITA_NDC   00011397
     0.49    +-  0.40       6.2    2.6   42    +- 5.94    0.20   0.63   +-0.2      +-0.1      +-        m i ke

ITALY (Frignano)
Sta    Dist   EvAz     Phase         Date       Time  TRes  Azim  AzRes  Slow  SRes Def  SNR        Amp   Per   Mag1   Mag2 Arr ID
ERBM    0.20   138 m   Pg      2008/02/18 13:46:37.1  -0.2                          T                                       00149941
ERBM    0.20   138 m   Sg      2008/02/18 13:46:41.6   0.1                          T                         Md 1.7        00149942
VLC     0.42   164 m   Pg      2008/02/18 13:46:40.3  -0.4                          T                                       00149943
VLC     0.42   164 m   Sg      2008/02/18 13:46:46.7  -0.6                          T                37   .57 Md 2.0 Ml 1.5 00149944
SC2M    0.52   252 m   Pg      2008/02/18 13:46:42.4   0.1                          T                                       00149945
SC2M    0.52   252 m   Sg      2008/02/18 13:46:50.4   0.4                          T                40   .36 Md 2.1 Ml 1.7 00149946
BDI     0.57   152 m   Pg      2008/02/18 13:46:43.2   0.0                          T                                       00149947
BDI     0.57   152 m   Sg      2008/02/18 13:46:51.5   0.0                          T                17   .42 Md 2.0 Ml 1.4 00149948
PZZT    0.63   133 m   Pg      2008/02/18 13:46:44.2   0.0                          T                                       00149949
PZZT    0.63   133 m   Sg      2008/02/18 13:46:54.1   0.8                          T                25   .42 Md 2.1 Ml 1.6 00149950

.

EVENT 00011398
   Date       Time            Lat       Lon    Depth    Ndef Nsta Gap    Mag1  N    Mag2  N    Mag3  N  Author          ID
       rms   O.T. Error    Smajor Sminor Az        Err  mdist   Mdist     Err        Err        Err     Quality

2008/02/18 17:15:56.4      43.350    13.288      7.2       8    4 288  Md 1.9  4  Ml 1.0  2             ITA_NDC   00011398
     0.37    +-  0.45       6.0    3.0  112    +-  1.8    0.07   0.58   +-0.1      +-0.2      +-        m i ke

ITALY (Zona Macerata)
Sta    Dist   EvAz     Phase         Date       Time  TRes  Azim  AzRes  Slow  SRes Def  SNR        Amp   Per   Mag1   Mag2 Arr ID
CING    0.07   291 m   Pg      2008/02/18 17:15:58.8   0.2                          T                                       00149952
CING    0.07   291 m   Sg      2008/02/18 17:15:59.8  -0.3                          T                         Md 1.8        00149953
CESI    0.44   219 m   Pg      2008/02/18 17:16:05.7  -0.2                          T                                       00149954
CESI    0.44   219 m   Sg      2008/02/18 17:16:12.9  -0.0                          T                 8   .48 Md 1.8 Ml 0.9 00149955
PIEI    0.58   289 m   Pg      2008/02/18 17:16:08.1  -0.1                          T                                       00149956
PIEI    0.58   289 m   Sg      2008/02/18 17:16:16.6  -0.2                          T                39   1.6 Md 2.1 Ml 1.1 00149957
MURB    0.56   261 m   Pg      2008/02/18 17:16:08.2   0.3                          T                                       00149958
MURB    0.56   261 m   Sg      2008/02/18 17:16:16.8   0.4                          T                         Md 1.9        00149959

.

EVENT 00011399
   Date       Time            Lat       Lon    Depth    Ndef Nsta Gap    Mag1  N    Mag2  N    Mag3  N  Author          ID
       rms   O.T. Error    Smajor Sminor Az        Err  mdist   Mdist     Err        Err        Err     Quality

2008/02/18 19:46:48.6      40.018    15.940     14.6      14    7 226  Md 2.0  7  Ml 1.6  6             ITA_NDC   00011399
     0.18    +-  0.09       1.2    0.9  145    +- 1.62    0.10   0.57   +-0.1      +-0.2      +-        m i ke

ITALY (Monte Alpi-Sirino)
Sta    Dist   EvAz     Phase         Date       Time  TRes  Azim  AzRes  Slow  SRes Def  SNR        Amp   Per   Mag1   Mag2 Arr ID
CUC     0.10   256 m   Pg      2008/02/18 19:46:52.2   0.2                          T                                       00149961
CUC     0.10   256 m   Sg      2008/02/18 19:46:54.3  -0.2                          T               217   .18 Md 1.8 Ml 1.8 00149962
SIRI    0.17   341 mci Pg      2008/02/18 19:46:53.2   0.1                          T                                       00149963
SIRI    0.17   341 m   Sg      2008/02/18 19:46:56.5   0.1                          T               202   .24 Md 2.2 Ml 1.9 00149964
SCHR    0.21    30 m   Pg      2008/02/18 19:46:53.7  -0.0                          T                                       00149965
SCHR    0.21    30 m   Sg      2008/02/18 19:46:57.2  -0.2                          T                51   .26 Md 2.0 Ml 1.4 00149966
MTSN    0.29   330 m   Pg      2008/02/18 19:46:54.9  -0.0                          T                                       00149967
MTSN    0.29   330 m   Sg      2008/02/18 19:46:59.5  -0.1                          T                75   .37 Md 2.0 Ml 1.7 00149968
MCEL    0.32   341 m   Pg      2008/02/18 19:46:55.5  -0.2                          T                                       00149969
MCEL    0.32   341 m   Sg      2008/02/18 19:47:01.1   0.3                          T                37   .28 Md 2.0 Ml 1.4 00149970
MGR     0.32   292 m   Pg      2008/02/18 19:46:55.6   0.0                          T                                       00149971
MGR     0.32   292 m   Sg      2008/02/18 19:47:00.6   0.1                          T                64   .24 Md 2.1 Ml 1.7 00149972
CMPR    0.57   302 m   Pg      2008/02/18 19:46:59.7  -0.1                          T                                       00149973
CMPR    0.57   302 m   Sg      2008/02/18 19:47:07.8  -0.2                          T                         Md 2.0        00149974

.

EVENT 00011400
   Date       Time            Lat       Lon    Depth    Ndef Nsta Gap    Mag1  N    Mag2  N    Mag3  N  Author          ID
       rms   O.T. Error    Smajor Sminor Az        Err  mdist   Mdist     Err        Err        Err     Quality

2008/02/19 03:13:24.9      41.751    13.683      4.2       6    3 193  Md 1.8  3  Ml 0.8  2             ITA_NDC   00011400
     0.11    +-  0.16       1.7    0.9  166    +- 1.98    0.04   0.13   +-0.3      +-0.0      +-        m i ke

ITALY (Monti Ernici-Simbruini)
Sta    Dist   EvAz     Phase         Date       Time  TRes  Azim  AzRes  Slow  SRes Def  SNR        Amp   Per   Mag1   Mag2 Arr ID
POFI    0.04   147 m   Pg      2008/02/19 03:13:26.1  -0.0                          T                                       00149976
POFI    0.04   147 m   Sg      2008/02/19 03:13:27.1   0.0                          T                85   .20 Md 1.7 Ml 0.8 00149977
SDI     0.10   113 m   Pg      2008/02/19 03:13:27.5   0.1                          T                                       00149978
SDI     0.10   113 m   Sg      2008/02/19 03:13:29.1  -0.1                          T                23   .16 Md 2.1        00149979
VVLD    0.13   340 m   Pg      2008/02/19 03:13:27.8  -0.1                          T                                       00149980
VVLD    0.13   340 m   Sg      2008/02/19 03:13:30.1   0.1                          T                29   .24 Md 1.6 Ml 0.8 00149981

.

EVENT 00011401
   Date       Time            Lat       Lon    Depth    Ndef Nsta Gap    Mag1  N    Mag2  N    Mag3  N  Author          ID
       rms   O.T. Error    Smajor Sminor Az        Err  mdist   Mdist     Err        Err        Err     Quality

2008/02/19 03:26:33.7      41.559    14.827      1.0       6    3 197  Md 2.1  3  Ml 1.2  3             ITA_NDC   00011401
     0.31    +-  0.20       3.8    1.0  137    +-    0    0.11   0.30   +-0.1      +-0.2      +-        m i ke

ITALY (Sannio)
Sta    Dist   EvAz     Phase         Date       Time  TRes  Azim  AzRes  Slow  SRes Def  SNR        Amp   Per   Mag1   Mag2 Arr ID
CIGN    0.11    32 m   Pg      2008/02/19 03:26:36.5   0.3                          T                                       00149983
CIGN    0.11    32 m   Sg      2008/02/19 03:26:37.9  -0.2                          T               100   .62 Md 2.2 Ml 1.2 00149984
BSSO    0.17   266 m   Pg      2008/02/19 03:26:37.7   0.0                          T                                       00149985
BSSO    0.17   266 m   Sg      2008/02/19 03:26:40.5  -0.0                          T               141   1.6 Md 2.0 Ml 1.0 00149986
PTRJ    0.30   229 m   Pg      2008/02/19 03:26:40.1  -0.3                          T                                       00149987
PTRJ    0.30   229 m   Sg      2008/02/19 03:26:45.4   0.2                          T                39   .43 Md 2.1 Ml 1.3 00149988

.

EVENT 00011402
   Date       Time            Lat       Lon    Depth    Ndef Nsta Gap    Mag1  N    Mag2  N    Mag3  N  Author          ID
       rms   O.T. Error    Smajor Sminor Az        Err  mdist   Mdist     Err        Err        Err     Quality

2008/02/19 03:33:09.3      41.411    13.913      6.7      10    6 149  Md 2.0  6  Ml 1.1  4             ITA_NDC   00011402
     0.38    +-  0.12       1.9    1.3   81    +- 3.06    0.20   0.51   +-0.3      +-0.3      +-        m i ke

ITALY (Valle Latina)
Sta    Dist   EvAz     Phase         Date       Time  TRes  Azim  AzRes  Slow  SRes Def  SNR        Amp   Per   Mag1   Mag2 Arr ID
CERA    0.20    23 m   Pg      2008/02/19 03:33:14.2   0.2                          T                                       00149990
CERA    0.20    23 m   Sg      2008/02/19 03:33:17.0  -0.5                          T                81   .70 Md 2.1 Ml 1.4 00149991
VAGA    0.24    89 m   Pg      2008/02/19 03:33:15.0   0.2                          T                                       00149992
VAGA    0.24    89 m   Sg      2008/02/19 03:33:18.7  -0.2                          T                65   .83 Md 2.0 Ml 1.3 00149993
MODR    0.27   186 m   Pg      2008/02/19 03:33:15.5   0.1                          T                                       00149994
MODR    0.27   186 m   Sg      2008/02/19 03:33:19.7  -0.2                          T                18   .84 Md 1.5 Ml 0.8 00149995
SDI     0.31   346 m   Pg      2008/02/19 03:33:16.4   0.1                          T                10   .16 Md 2.0        00149996
SGG     0.35    94 m   Pg      2008/02/19 03:33:17.4   0.2                          T                19   .54 Md 2.2 Ml 1.1 00149997
VVLD    0.51   335 m   Pg      2008/02/19 03:33:19.4  -0.6                          T                                       00149998
VVLD    0.51   335 m   Sg      2008/02/19 03:33:28.1   0.3                          T                         Md 2.2        00149999

.

EVENT 00011403
   Date       Time            Lat       Lon    Depth    Ndef Nsta Gap    Mag1  N    Mag2  N    Mag3  N  Author          ID
       rms   O.T. Error    Smajor Sminor Az        Err  mdist   Mdist     Err        Err        Err     Quality

2008/02/19 03:44:11.3      37.788    14.150      8.2      11    7 231  Md 2.3  7  Ml 2.1  5             ITA_NDC   00011403
     0.31    +-  0.32      10.6    2.2   66    +- 5.58    0.17   0.94   +-0.2      +-0.4      +-        m i ke

ITALY (Madonie)
Sta    Dist   EvAz     Phase         Date       Time  TRes  Azim  AzRes  Slow  SRes Def  SNR        Amp   Per   Mag1   Mag2 Arr ID
CSLB    0.17   334 m   Pg      2008/02/19 03:44:15.5   0.1                          T                                       00150001
CSLB    0.17   334 m   Sg      2008/02/19 03:44:18.7   0.3                          T               122   .28 Md 2.3        00150002
GIB     0.22   334 m   Pg      2008/02/19 03:44:16.5  -0.1                          T                                       00150003
GIB     0.22   334 m   Sg      2008/02/19 03:44:20.1  -0.4                          T               190   .50 Md 2.3 Ml 1.9 00150004
GALF    0.34   103 m   Pg      2008/02/19 03:44:18.8  -0.1                          T                                       00150005
GALF    0.34   103 m   Sg      2008/02/19 03:44:24.6   0.1                          T               188   .58 Md 2.4 Ml 2.0 00150006
IACL    0.76    12 m   Pg      2008/02/19 03:44:26.6   0.4                          T                57   .72 Md 2.2 Ml 1.9 00150007
IFIL    0.84    23 m   Pg      2008/02/19 03:44:27.6   0.0                          T                                       00150008
IFIL    0.84    23 m   Sg      2008/02/19 03:44:39.2  -0.1                          T                69   .75 Md 2.2 Ml 2.1 00150009
SLNA    0.94    34 m   Pg      2008/02/19 03:44:29.0  -0.3                          T                26   .36 Md 2.7        00150010
ILLI    0.91    43 m   Pg      2008/02/19 03:44:29.0   0.3                          T               164   .63 Md 2.3 Ml 2.6 00150011

.

EVENT 00011404
   Date       Time            Lat       Lon    Depth    Ndef Nsta Gap    Mag1  N    Mag2  N    Mag3  N  Author          ID
       rms   O.T. Error    Smajor Sminor Az        Err  mdist   Mdist     Err        Err        Err     Quality

2008/02/19 07:47:08.8      39.671    15.817    273.0      18   12 264         0  Ml 3.0  8             ITA_NDC   00011404
     0.52    +-  0.46      16.0    7.3  118    +- 7.38    0.52   2.18   +-0.0      +-0.3      +-        m i ke

ITALY (Costa calabra occidentale)
Sta    Dist   EvAz     Phase         Date       Time  TRes  Azim  AzRes  Slow  SRes Def  SNR        Amp   Per   Mag1   Mag2 Arr ID
CARO    0.52   143 m   Pg      2008/02/19 07:47:44.9  -0.2                          T                                       00150013
CARO    0.52   143 m   Sg      2008/02/19 07:48:11.2  -0.6                          T               278   .82        Ml 3.5 00150014
TIP     0.88   124 mci Pg      2008/02/19 07:47:46.9   0.3                          T                                       00150015
TIP     0.88   124 m   Sg      2008/02/19 07:48:14.8   0.6                          T                                       00150016
JOPP    1.06   177 mci Pg      2008/02/19 07:47:47.2  -0.3                          T                                       00150017
JOPP    1.06   177 m   Sg      2008/02/19 07:48:15.5  -0.4                          T                                       00150018
GRI     0.97   151 m   Pg      2008/02/19 07:47:47.6   0.5                          T                57   .36        Ml 3.1 00150019
PLAC    1.31   158 mci Pg      2008/02/19 07:47:49.1  -0.0                          T                                       00150020
PLAC    1.31   158 m   Sg      2008/02/19 07:48:18.9   0.4                          T                37   .48        Ml 2.9 00150021
CEL     1.41   178 m   Pg      2008/02/19 07:47:49.1  -0.7                          T                                       00150022
CEL     1.41   178 m   Sg      2008/02/19 07:48:19.4  -0.3                          T                37   .43        Ml 2.9 00150023
MILZ    1.47   198 m   Pg      2008/02/19 07:47:50.1  -0.1                          T                                       00150024
IVPL    1.45   207 m   Pg      2008/02/19 07:47:50.8   0.7                          T                                       00150025
SOI     1.61   173 m   Pg      2008/02/19 07:47:50.8  -0.4                          T                18   .46        Ml 2.7 00150026
MPAZ    1.72   175 m   Pg      2008/02/19 07:47:51.8  -0.3                          T                                       00150027
MPAZ    1.72   175 m   Sg      2008/02/19 07:48:24.2   0.3                          T                40   .53        Ml 3.0 00150028
MMME    1.79   194 m   Pg      2008/02/19 07:47:53.4   0.7                          T                39   .61        Ml 3.0 00150029
GIB     2.18   220 m   Pg      2008/02/19 07:47:56.8   0.5                          T                68   .76        Ml 3.2 00150030

.

