EVENT 00011381
   Date       Time            Lat       Lon    Depth    Ndef Nsta Gap    Mag1  N    Mag2  N    Mag3  N  Author          ID
       rms   O.T. Error    Smajor Sminor Az        Err  mdist   Mdist     Err        Err        Err     Quality

2008/02/16 22:12:16.8      43.112    10.770     16.2      42   34 158         0  Ml 3.3 23             ITA_NDC   00011381
     1.23    +-  0.14       2.6    1.6   74    +- 3.06    0.33   1.91   +-0.0      +-0.3      +-        m i ke

ITALY (Colline Metallifere)
Sta    Dist   EvAz     Phase         Date       Time  TRes  Azim  AzRes  Slow  SRes Def  SNR        Amp   Per   Mag1   Mag2 Arr ID
CASP    0.33   168 mci Pg      2008/02/16 22:12:23.7  -0.3                          T                                       00149707
CASP    0.33   168 m   Sg      2008/02/16 22:12:28.7  -0.5                          T              6845   .34        Ml 3.7 00149708
CSNT    0.52    46 mci Pg      2008/02/16 22:12:26.4  -0.9                          T                                       00149709
CSNT    0.52    46 m   Sg      2008/02/16 22:12:32.8  -2.0                          T              1550   .76        Ml 3.1 00149710
ARCI    0.58   117 m   Pg      2008/02/16 22:12:27.9  -0.2                          T                                       00149711
ARCI    0.58   117 m   Sg      2008/02/16 22:12:35.5  -0.9                          T              1681   .26        Ml 3.4 00149712
PII     0.63   344 mci Pg      2008/02/16 22:12:29.1  -0.0                          T                                       00149713
PII     0.63   344 m   Sg      2008/02/16 22:12:37.0  -1.2                          T                                       00149714
CRMI    0.69    12 mci Pg      2008/02/16 22:12:30.1  -0.1                          T              1943   .65        Ml 3.5 00149715
MAON    0.73   159 m   Pg      2008/02/16 22:12:31.6   0.8                          T                                       00149716
MAON    0.73   159 m   Sg      2008/02/16 22:12:41.5   0.5                          T              3160   .28        Ml 3.8 00149717
MAIM    0.83   346 mci Pg      2008/02/16 22:12:32.4  -0.0                          T                                       00149718
MAIM    0.83   346 m   Sg      2008/02/16 22:12:42.7  -1.1                          T              1332   .76        Ml 3.3 00149719
SACS    0.87   107 m   Pg      2008/02/16 22:12:33.6   0.4                          T              1879   1.6        Ml 3.1 00149720
BDI     0.96   353 m   Pg      2008/02/16 22:12:34.7  -0.0                          T              1171   .86        Ml 3.3 00149721
CRE     1.00    59 m   Pg      2008/02/16 22:12:35.5   0.2                          T                                       00149722
CRE     1.00    59 m   Sg      2008/02/16 22:12:48.9   0.1                          T               279   .62        Ml 2.9 00149723
VMG     1.02    33 m   Pg      2008/02/16 22:12:35.9   0.3                          T               700   .48               00149724
SEI     1.03    24 m   Pg      2008/02/16 22:12:36.3   0.4                          T              2857   .80               00149725
VLC     1.08   345 m   Pg      2008/02/16 22:12:37.0   0.2                          T                                       00149726
VLC     1.08   345 m   Sg      2008/02/16 22:12:51.8   0.4                          T               805   1.1        Ml 3.1 00149727
FNVD    1.09    13 m   Pg      2008/02/16 22:12:37.3   0.5                          T              1115   .72        Ml 3.5 00149728
SFI     1.11    44 m   Pg      2008/02/16 22:12:37.4   0.1                          T               742   1.0        Ml 3.2 00149729
CDCA    1.12    71 m   Pg      2008/02/16 22:12:37.5   0.1                          T               545   .68               00149730
BADI    1.14    69 m   Pg      2008/02/16 22:12:38.1   0.3                          T                                       00149731
MURB    1.29    83 m   Pg      2008/02/16 22:12:40.3   0.1                          T               871   .55        Ml 3.6 00149732
PIEI    1.35    71 m   Pg      2008/02/16 22:12:41.0  -0.4                          T               306   .78        Ml 3.0 00149733
ZCCA    1.25     7 m   Pg      2008/02/16 22:12:41.4   1.8                          T              2516   1.5        Ml 3.5 00149734
ERBM    1.33   349 m   Pg      2008/02/16 22:12:41.4   0.4                          T               555   .86        Ml 3.2 00149735
ASS     1.37    91 m   Pg      2008/02/16 22:12:41.6  -0.2                          T               206   .64               00149736
MNS     1.58   117 m   Pg      2008/02/16 22:12:44.3  -0.5                          T               123   .66        Ml 2.8 00149737
CESI    1.56    93 m   Pg      2008/02/16 22:12:44.4  -0.2                          T               100   .60        Ml 2.8 00149738
SC2M    1.57   326 m   Pg      2008/02/16 22:12:44.4  -0.3                          T               480   .84        Ml 3.3 00149739
SNTG    1.59    84 m   Pg      2008/02/16 22:12:44.5  -0.5                          T                54   .32               00149740
FSSB    1.57    68 m   Pg      2008/02/16 22:12:44.5  -0.2                          T               373   .56        Ml 3.3 00149741
RSM     1.47    56 m   Pg      2008/02/16 22:12:44.8   1.6                          T                                       00149742
LNSS    1.74   106 m   Pg      2008/02/16 22:12:47.1   0.1                          T               428   .80        Ml 3.4 00149743
NRCA    1.74    98 m   Pg      2008/02/16 22:12:47.4   0.4                          T                50   .60               00149744
FIU     1.61    19 m   Pg      2008/02/16 22:12:48.4   3.1                          T              1052   .84        Ml 3.7 00149745
RAVA    1.66     9 m   Pg      2008/02/16 22:12:49.9   4.0                          T                                       00149746
BOB     1.91   331 m   Pg      2008/02/16 22:12:49.9   0.6                          T               233   .73        Ml 3.2 00149747
NOVE    1.69   359 m   Pg      2008/02/16 22:12:50.0   3.8                          T                                       00149748

.

EVENT 00011382
   Date       Time            Lat       Lon    Depth    Ndef Nsta Gap    Mag1  N    Mag2  N    Mag3  N  Author          ID
       rms   O.T. Error    Smajor Sminor Az        Err  mdist   Mdist     Err        Err        Err     Quality

2008/02/16 23:27:57.9      39.357    16.466     10.9       6    3 246  Md 1.7  3  Ml 1.3  3             ITA_NDC   00011382
     0.11    +-  0.14       1.9    0.5   10    +-    0    0.22   0.36   +-0.1      +-0.1      +-        m i ke

ITALY (La Sila)
Sta    Dist   EvAz     Phase         Date       Time  TRes  Azim  AzRes  Slow  SRes Def  SNR        Amp   Per   Mag1   Mag2 Arr ID
CARO    0.22   242 m   Pg      2008/02/16 23:28:03.0  -0.1                          T                                       00149750
CARO    0.22   242 m   Sg      2008/02/16 23:28:07.0   0.1                          T               629   3.1 Md 1.8 Ml 1.3 00149751
TIP     0.29   128 m   Pg      2008/02/16 23:28:04.4   0.1                          T                                       00149752
TIP     0.29   128 m   Sg      2008/02/16 23:28:08.9  -0.1                          T               640   3.2 Md 1.6 Ml 1.4 00149753
SERS    0.36   152 m   Pg      2008/02/16 23:28:05.7   0.1                          T                                       00149754
SERS    0.36   152 m   Sg      2008/02/16 23:28:11.2  -0.0                          T               774   4.6 Md 1.7 Ml 1.3 00149755

.

EVENT 00011383
   Date       Time            Lat       Lon    Depth    Ndef Nsta Gap    Mag1  N    Mag2  N    Mag3  N  Author          ID
       rms   O.T. Error    Smajor Sminor Az        Err  mdist   Mdist     Err        Err        Err     Quality

2008/02/17 04:39:43.7      43.960    11.803      9.0       6    3 239  Md 1.8  3  Ml 1.2  1             ITA_NDC   00011383
     0.18    +-  0.27       4.9    0.9   39    +- 1.08    0.06   0.36   +-0.1      +-0.0      +-        m i ke

ITALY (Appennino forlivese)
Sta    Dist   EvAz     Phase         Date       Time  TRes  Azim  AzRes  Slow  SRes Def  SNR        Amp   Per   Mag1   Mag2 Arr ID
SFI     0.06   150 m   Pg      2008/02/17 04:39:46.1   0.1                          T                                       00149757
SFI     0.06   150 m   Sg      2008/02/17 04:39:47.6  -0.1                          T                         Md 1.7        00149758
VMG     0.19   271 m   Pg      2008/02/17 04:39:48.3   0.0                          T                                       00149759
VMG     0.19   271 m   Sg      2008/02/17 04:39:51.6  -0.0                          T                36   .44 Md 1.8        00149760
CRE     0.36   163 m   Pg      2008/02/17 04:39:51.4  -0.1                          T                                       00149761
CRE     0.36   163 m   Sg      2008/02/17 04:39:57.4   0.2                          T               129   2.1 Md 1.9 Ml 1.2 00149762

.

EVENT 00011384
   Date       Time            Lat       Lon    Depth    Ndef Nsta Gap    Mag1  N    Mag2  N    Mag3  N  Author          ID
       rms   O.T. Error    Smajor Sminor Az        Err  mdist   Mdist     Err        Err        Err     Quality

2008/02/17 04:58:31.7      44.524    10.169      9.5      19   10 118  Md 2.3 10  Ml 2.1  5             ITA_NDC   00011384
     0.66    +-  0.29       2.8    2.0   85    +-  2.7    0.20   1.29   +-0.2      +-0.4      +-        m i ke

ITALY (Frignano)
Sta    Dist   EvAz     Phase         Date       Time  TRes  Azim  AzRes  Slow  SRes Def  SNR        Amp   Per   Mag1   Mag2 Arr ID
ERBM    0.20   121 m   Pg      2008/02/17 04:58:36.3  -0.2                          T                                       00149764
ERBM    0.20   121 m   Sg      2008/02/17 04:58:40.9   0.7                          T               268   .36 Md 2.3 Ml 2.0 00149765
VLC     0.40   157 m   Pg      2008/02/17 04:58:39.5  -0.6                          T                                       00149766
VLC     0.40   157 m   Sg      2008/02/17 04:58:45.9  -0.3                          T               109   .56 Md 2.0 Ml 1.9 00149767
NOVE    0.48    55 m   Pg      2008/02/17 04:58:41.2  -0.2                          T                                       00149768
NOVE    0.48    55 m   Sg      2008/02/17 04:58:49.7   1.0                          T                         Md 2.4        00149769
SC2M    0.47   255 m   Pg      2008/02/17 04:58:41.5   0.2                          T                                       00149770
SC2M    0.47   255 m   Sg      2008/02/17 04:58:49.4   1.0                          T               134   .44 Md 2.0 Ml 2.1 00149771
BDI     0.55   146 m   Pg      2008/02/17 04:58:42.3  -0.5                          T                                       00149772
BDI     0.55   146 m   Sg      2008/02/17 04:58:50.4  -0.5                          T                55   .41 Md 2.2 Ml 1.8 00149773
MAIM    0.65   159 m   Pg      2008/02/17 04:58:43.8  -0.6                          T                                       00149774
MAIM    0.65   159 m   Sg      2008/02/17 04:58:54.3   0.5                          T                         Md 2.5        00149775
FNVD    0.77   117 m   Pg      2008/02/17 04:58:46.4  -0.1                          T                                       00149776
FNVD    0.77   117 m   Sg      2008/02/17 04:58:58.3   1.0                          T                         Md 2.3        00149777
PII     0.84   162 m   Pg      2008/02/17 04:58:48.1   0.4                          T                                       00149778
PII     0.84   162 m   Sg      2008/02/17 04:58:59.3  -0.2                          T                33   .24 Md 2.3        00149779
SALO    1.12    13 m   Pg      2008/02/17 04:58:52.9   0.4                          T                         Md 2.4        00149780
MAGA    1.29    14 m   Pg      2008/02/17 04:58:54.6  -0.9                          T                                       00149781
MAGA    1.29    14 m   Sg      2008/02/17 04:59:12.7  -0.1                          T                91   .38 Md 2.8 Ml 2.6 00149782

.

EVENT 00011385
   Date       Time            Lat       Lon    Depth    Ndef Nsta Gap    Mag1  N    Mag2  N    Mag3  N  Author          ID
       rms   O.T. Error    Smajor Sminor Az        Err  mdist   Mdist     Err        Err        Err     Quality

2008/02/17 07:11:33.9      44.178    12.261     10.0       5    3 296  Md 1.9  3  Ml 1.4  1             ITA_NDC   00011385
     0.17    +-  0.28       3.0    1.2   79    +-    0    0.30   0.56   +-0.2      +-0.0      +-        m i ke

ITALY (Zona Forli')
Sta    Dist   EvAz     Phase         Date       Time  TRes  Azim  AzRes  Slow  SRes Def  SNR        Amp   Per   Mag1   Mag2 Arr ID
FAEN    0.30   292 m   Pg      2008/02/17 07:11:40.5  -0.1                          T                                       00149784
FAEN    0.30   292 m   Sg      2008/02/17 07:11:45.5   0.1                          T                         Md 2.1        00149785
SFI     0.40   228 m   Pg      2008/02/17 07:11:42.5   0.1                          T                                       00149786
SFI     0.40   228 m   Sg      2008/02/17 07:11:48.6  -0.0                          T                32   .44 Md 1.7 Ml 1.4 00149787
VMG     0.56   248 m   Pg      2008/02/17 07:11:44.9  -0.2                          T                 5   .16 Md 1.8        00149788

.

EVENT 00011386
   Date       Time            Lat       Lon    Depth    Ndef Nsta Gap    Mag1  N    Mag2  N    Mag3  N  Author          ID
       rms   O.T. Error    Smajor Sminor Az        Err  mdist   Mdist     Err        Err        Err     Quality

2008/02/17 08:53:39.1      40.877    16.911      3.0      11    6 198  Md 1.9  4  Ml 2.3  3             ITA_NDC   00011386
     0.86    +-  0.33       4.4    2.4   36    +- 4.68    0.14   1.32   +-0.1      +-0.4      +-        m i ke

ITALY (Le Murge)
Sta    Dist   EvAz     Phase         Date       Time  TRes  Azim  AzRes  Slow  SRes Def  SNR        Amp   Per   Mag1   Mag2 Arr ID
NOCI    0.14   127 m   Pg      2008/02/17 08:53:42.5   0.1                          T                                       00149790
NOCI    0.14   127 m   Sg      2008/02/17 08:53:44.9   0.0                          T                         Md 1.9        00149791
AMUR    0.23   278 m   Pg      2008/02/17 08:53:44.6   0.2                          T                                       00149792
AMUR    0.23   278 m   Sg      2008/02/17 08:53:48.3   0.0                          T                         Md 1.7        00149793
LTRZ    0.28   194 m   Pg      2008/02/17 08:53:45.2  -0.3                          T                                       00149794
LTRZ    0.28   194 m   Sg      2008/02/17 08:53:49.9  -0.1                          T               522   .14 Md 2.0 Ml 2.5 00149795
MRVN    0.57   289 m   Pg      2008/02/17 08:53:50.5  -0.9                          T                                       00149796
MRVN    0.57   289 m   Sg      2008/02/17 08:53:59.3  -1.0                          T                57   .81 Md 2.0 Ml 1.7 00149797
ACER    0.74   263 m   Pg      2008/02/17 08:53:55.4   1.2                          T                                       00149798
ACER    0.74   263 m   Sg      2008/02/17 08:54:06.3   1.0                          T               185   .27        Ml 2.6 00149799
MCRV    1.32   266 m   Pg      2008/02/17 08:54:05.1   0.9                          T                                       00149800

.

EVENT 00011387
   Date       Time            Lat       Lon    Depth    Ndef Nsta Gap    Mag1  N    Mag2  N    Mag3  N  Author          ID
       rms   O.T. Error    Smajor Sminor Az        Err  mdist   Mdist     Err        Err        Err     Quality

2008/02/17 10:30:33.9      38.083    13.198     10.0       6    3 257  Md 2.4  3         0             ITA_NDC   00011387
     0.37    +-  0.48       7.0    1.5   49    +-    0    0.62   0.69   +-0.1      +-0.0      +-        m i ke

ITALY (Zona Palermo)
Sta    Dist   EvAz     Phase         Date       Time  TRes  Azim  AzRes  Slow  SRes Def  SNR        Amp   Per   Mag1   Mag2 Arr ID
USI     0.62   359 m   Pg      2008/02/17 10:30:46.3   0.1                          T                                       00149802
USI     0.62   359 m   Sg      2008/02/17 10:30:55.1  -0.1                          T                         Md 2.5        00149803
GIB     0.66    98 m   Pg      2008/02/17 10:30:46.7  -0.1                          T                                       00149804
GIB     0.66    98 m   Sg      2008/02/17 10:30:56.7   0.5                          T                74   .52 Md 2.3        00149805
CSLB    0.69   102 m   Pg      2008/02/17 10:30:47.5   0.1                          T                                       00149806
CSLB    0.69   102 m   Sg      2008/02/17 10:30:56.9  -0.3                          T               149   .64 Md 2.3        00149807

.

