BEGIN GSE2.0
MSG_TYPE DATA
MSG_ID 2008-03-21_16:15:35 ITA_NDC
E-MAIL franco.mele@ingv.it
DATA_TYPE BULLETIN GSE2.0

EVENT 00011371
   Date       Time            Lat       Lon    Depth    Ndef Nsta Gap    Mag1  N    Mag2  N    Mag3  N  Author          ID
       rms   O.T. Error    Smajor Sminor Az        Err  mdist   Mdist     Err        Err        Err     Quality

2008/02/16 01:22:14.9      43.935    10.289      5.1      11    6 170  Md 2.2  6  Ml 1.7  4             ITA_NDC   00011371
     0.32    +-  0.18       2.3    1.3   91    +-  2.7    0.15   0.72   +-0.3      +-0.1      +-        m i ke

ITALY (Alpi Apuane)
Sta    Dist   EvAz     Phase         Date       Time  TRes  Azim  AzRes  Slow  SRes Def  SNR        Amp   Per   Mag1   Mag2 Arr ID
MAIM    0.15    98 m   Pg      2008/02/16 01:22:18.8   0.4                          T                                       00149600
MAIM    0.15    98 m   Sg      2008/02/16 01:22:21.1   0.1                          T               273   .21 Md 1.9 Ml 1.9 00149601
VLC     0.23    17 m   Pg      2008/02/16 01:22:20.4   0.1                          T                                       00149602
VLC     0.23    17 m   Sg      2008/02/16 01:22:24.1  -0.1                          T                96   .19 Md 2.1 Ml 1.6 00149603
BDI     0.26    60 m   Pg      2008/02/16 01:22:20.8   0.1                          T                                       00149604
BDI     0.26    60 m   Sg      2008/02/16 01:22:24.5  -0.5                          T               124   .70 Md 2.0 Ml 1.7 00149605
PII     0.27   141 m   Pg      2008/02/16 01:22:21.1  -0.0                          T                                       00149606
PII     0.27   141 m   Sg      2008/02/16 01:22:25.2  -0.5                          T                         Md 2.0        00149607
ERBM    0.49    10 m   Pg      2008/02/16 01:22:25.8   0.2                          T                                       00149608
ERBM    0.49    10 m   Sg      2008/02/16 01:22:33.4   0.0                          T               120   1.3 Md 2.5 Ml 1.7 00149609
SC2M    0.72   311 m   Pg      2008/02/16 01:22:29.2  -0.2                          T                         Md 2.4        00149610

.

EVENT 00011372
   Date       Time            Lat       Lon    Depth    Ndef Nsta Gap    Mag1  N    Mag2  N    Mag3  N  Author          ID
       rms   O.T. Error    Smajor Sminor Az        Err  mdist   Mdist     Err        Err        Err     Quality

2008/02/16 02:49:56.0      43.696    10.660      9.7      12    7 169  Md 2.1  7  Ml 1.6  4             ITA_NDC   00011372
     0.52    +-  0.19       3.3    1.7   21    +-  1.8    0.10   0.69   +-0.1      +-0.2      +-        m i ke

ITALY (Valdarno inferiore)
Sta    Dist   EvAz     Phase         Date       Time  TRes  Azim  AzRes  Slow  SRes Def  SNR        Amp   Per   Mag1   Mag2 Arr ID
PII     0.10   285 m   Pg      2008/02/16 02:49:59.4   0.3                          T                                       00149612
PII     0.10   285 m   Sg      2008/02/16 02:50:00.8  -0.4                          T                         Md 2.1        00149613
CRMI    0.24    67 m   Pg      2008/02/16 02:50:01.8  -0.0                          T                                       00149614
CRMI    0.24    67 m   Sg      2008/02/16 02:50:05.8  -0.2                          T                45   .20 Md 1.9 Ml 1.4 00149615
BDI     0.37   353 m   Pg      2008/02/16 02:50:03.9  -0.1                          T                                       00149616
BDI     0.37   353 m   Sg      2008/02/16 02:50:08.9  -0.8                          T                80   .29 Md 1.9 Ml 1.8 00149617
CSNT    0.51   116 m   Pg      2008/02/16 02:50:06.3  -0.1                          T                                       00149618
CSNT    0.51   116 m   Sg      2008/02/16 02:50:13.3  -0.6                          T                48   .36 Md 2.2 Ml 1.7 00149619
VLC     0.50   337 m   Pg      2008/02/16 02:50:06.4   0.1                          T                                       00149620
VLC     0.50   337 m   Sg      2008/02/16 02:50:13.8   0.0                          T                40   .86 Md 2.0 Ml 1.5 00149621
SEI     0.62    54 m   Pg      2008/02/16 02:50:08.8   0.5                          T                83   .32 Md 2.2        00149622
VMG     0.69    67 m   Pg      2008/02/16 02:50:10.1   0.7                          T                12   .16 Md 2.3        00149623

.

EVENT 00011373
   Date       Time            Lat       Lon    Depth    Ndef Nsta Gap    Mag1  N    Mag2  N    Mag3  N  Author          ID
       rms   O.T. Error    Smajor Sminor Az        Err  mdist   Mdist     Err        Err        Err     Quality

2008/02/16 03:06:12.7      43.533    12.096      7.0      16    9 123  Md 2.3  8  Ml 2.1  6             ITA_NDC   00011373
     0.40    +-  0.11       1.7    1.2  176    +- 1.26    0.11   0.62   +-0.2      +-0.3      +-        m i ke

ITALY (Alta Val Tiberina)
Sta    Dist   EvAz     Phase         Date       Time  TRes  Azim  AzRes  Slow  SRes Def  SNR        Amp   Per   Mag1   Mag2 Arr ID
CDCA    0.12   127 m   Pg      2008/02/16 03:06:15.8  -0.1                          T                                       00149625
CDCA    0.12   127 m   Sg      2008/02/16 03:06:18.0  -0.1                          T               158   .24 Md 2.8        00149626
BADI    0.11   102 m   Pg      2008/02/16 03:06:15.8   0.3                          T                                       00149627
BADI    0.11   102 m   Sg      2008/02/16 03:06:18.1   0.5                          T               729   .30 Md 2.3 Ml 2.2 00149628
CRE     0.13   309 m   Pg      2008/02/16 03:06:16.2   0.2                          T                                       00149629
CRE     0.13   309 m   Sg      2008/02/16 03:06:17.6  -0.9                          T               206   .48 Md 2.2 Ml 1.7 00149630
CAFI    0.22   205 m   Pg      2008/02/16 03:06:17.9  -0.0                          T                                       00149631
CAFI    0.22   205 m   Sg      2008/02/16 03:06:21.6  -0.2                          T               313   .50 Md 2.3 Ml 2.1 00149632
PIEI    0.32    89 m   Pg      2008/02/16 03:06:19.7  -0.3                          T                                       00149633
PIEI    0.32    89 m   Sg      2008/02/16 03:06:25.2  -0.0                          T               247   .34 Md 2.2 Ml 2.2 00149634
MURB    0.41   131 m   Pg      2008/02/16 03:06:21.3  -0.4                          T                                       00149635
MURB    0.41   131 m   Sg      2008/02/16 03:06:28.4   0.1                          T               315   .27 Md 2.5 Ml 2.5 00149636
FSSB    0.52    72 m   Pg      2008/02/16 03:06:23.2  -0.3                          T                                       00149637
FSSB    0.52    72 m   Sg      2008/02/16 03:06:31.7   0.3                          T                91   .20               00149638
ASS     0.62   139 m   Pg      2008/02/16 03:06:25.2  -0.1                          T                26   .44 Md 2.1        00149639
CSNT    0.59   264 m   Pg      2008/02/16 03:06:25.3   0.6                          T                70   .82 Md 2.1 Ml 1.8 00149640

.

EVENT 00011374
   Date       Time            Lat       Lon    Depth    Ndef Nsta Gap    Mag1  N    Mag2  N    Mag3  N  Author          ID
       rms   O.T. Error    Smajor Sminor Az        Err  mdist   Mdist     Err        Err        Err     Quality

2008/02/16 03:59:20.4      44.474    10.426     29.3       6    3 333  Md 1.9  2  Ml 1.7  3             ITA_NDC   00011374
     0.07    +-  0.10       3.2    0.8   86    +-  0.9    0.05   0.43   +-0.1      +-0.4      +-        m i ke

ITALY (Frignano)
Sta    Dist   EvAz     Phase         Date       Time  TRes  Azim  AzRes  Slow  SRes Def  SNR        Amp   Per   Mag1   Mag2 Arr ID
ERBM    0.05   190 m   Pg      2008/02/16 03:59:25.6  -0.0                          T                                       00149642
ERBM    0.05   190 m   Sg      2008/02/16 03:59:29.3   0.0                          T               306   .14 Md 2.0 Ml 2.2 00149643
VLC     0.32   185 m   Pg      2008/02/16 03:59:28.3   0.1                          T                                       00149644
VLC     0.32   185 m   Sg      2008/02/16 03:59:33.8  -0.1                          T               129   2.0        Ml 1.3 00149645
BDI     0.43   163 m   Pg      2008/02/16 03:59:29.8  -0.0                          T                                       00149646
BDI     0.43   163 m   Sg      2008/02/16 03:59:36.8   0.0                          T                40   .38 Md 1.9 Ml 1.7 00149647

.

EVENT 00011375
   Date       Time            Lat       Lon    Depth    Ndef Nsta Gap    Mag1  N    Mag2  N    Mag3  N  Author          ID
       rms   O.T. Error    Smajor Sminor Az        Err  mdist   Mdist     Err        Err        Err     Quality

2008/02/16 04:05:40.1      37.072    15.265     23.3       6    3 234  Md 1.8  3  Ml 2.5  3             ITA_NDC   00011375
     0.06    +-  0.10       2.8    1.2   23    +- 1.44    0.16   0.19   +-0.2      +-0.2      +-        m i ke

ITALY (Golfo di Augusta)
Sta    Dist   EvAz     Phase         Date       Time  TRes  Azim  AzRes  Slow  SRes Def  SNR        Amp   Per   Mag1   Mag2 Arr ID
HAVL    0.16   225 mdi Pg      2008/02/16 04:05:45.3  -0.0                          T                                       00149649
HAVL    0.16   225 m   Sg      2008/02/16 04:05:49.1   0.0                          T               568   .23 Md 1.8 Ml 2.5 00149650
SSY     0.17   299 m   Pg      2008/02/16 04:05:45.5  -0.0                          T                                       00149651
SSY     0.17   299 m   Sg      2008/02/16 04:05:49.4   0.0                          T               422   .24 Md 2.1 Ml 2.4 00149652
AGST    0.19   351 m   Pg      2008/02/16 04:05:45.7   0.0                          T                                       00149653
AGST    0.19   351 m   Sg      2008/02/16 04:05:49.6  -0.1                          T               950   .34 Md 1.6 Ml 2.7 00149654

.

EVENT 00011376
   Date       Time            Lat       Lon    Depth    Ndef Nsta Gap    Mag1  N    Mag2  N    Mag3  N  Author          ID
       rms   O.T. Error    Smajor Sminor Az        Err  mdist   Mdist     Err        Err        Err     Quality

2008/02/16 06:42:47.1      45.227     7.648     35.0      15   10  80  Md 2.1  7  Ml 2.4  1             ITA_NDC   00011376
     1.08    +-  0.35       5.2    4.3  147    +- 5.22    0.25   1.20   +-0.1      +-0.0      +-        m i ke

ITALY (Pianura padana piemontese)
Sta    Dist   EvAz     Phase         Date       Time  TRes  Azim  AzRes  Slow  SRes Def  SNR        Amp   Per   Mag1   Mag2 Arr ID
RSP     0.28   254 m   Pg      2008/02/16 06:42:55.1   0.0                          T                                       00149656
RSP     0.28   254 m   Sg      2008/02/16 06:43:00.5  -0.3                          T               254   .19 Md 2.0 Ml 2.4 00149657
MONC    0.25   128 m   Pg      2008/02/16 06:42:55.5   0.9                          T                                       00149658
MONC    0.25   128 m   Sg      2008/02/16 06:43:01.7   1.5                          T                         Md 2.2        00149659
ORO     0.46    30 m   Pg      2008/02/16 06:42:56.5  -1.0                          T                84   .24 Md 2.4        00149660
BLB     0.48   215 m   Pg      2008/02/16 06:42:57.2  -0.5                          T                                       00149661
BLB     0.48   215 m   Sg      2008/02/16 06:43:03.8  -1.7                          T                         Md 1.9        00149662
LSD     0.43   303 m   Pg      2008/02/16 06:42:57.4   0.3                          T                                       00149663
LSD     0.43   303 m   Sg      2008/02/16 06:43:04.0  -0.3                          T                         Md 2.1        00149664
MRGE    0.68   323 m   Pg      2008/02/16 06:43:01.3   0.4                          T                         Md 2.2        00149665
PZZ     0.81   208 m   Pg      2008/02/16 06:43:02.0  -0.8                          T                         Md 2.2        00149666
BNI     0.71   256 m   Pg      2008/02/16 06:43:02.2   0.9                          T                                       00149667
BNI     0.71   256 m   Sg      2008/02/16 06:43:11.9   0.2                          T                                       00149668
EMV     0.99   328 m   Pg      2008/02/16 06:43:06.8   1.6                          T                                       00149669
MUGIO   1.20    54 m   Pg      2008/02/16 06:43:07.0  -1.1                          T                                       00149670

.

EVENT 00011377
   Date       Time            Lat       Lon    Depth    Ndef Nsta Gap    Mag1  N    Mag2  N    Mag3  N  Author          ID
       rms   O.T. Error    Smajor Sminor Az        Err  mdist   Mdist     Err        Err        Err     Quality

2008/02/16 09:46:29.5      43.259    12.696     14.1       8    4 114  Md 1.8  4  Ml 2.0  2             ITA_NDC   00011377
     0.04    +-  0.02       0.3    0.2  116    +- 0.54    0.12   0.30   +-0.3      +-0.6      +-        m i ke

ITALY (Bacino di Gubbio)
Sta    Dist   EvAz     Phase         Date       Time  TRes  Azim  AzRes  Slow  SRes Def  SNR        Amp   Per   Mag1   Mag2 Arr ID
MURB    0.12   272 mci Pg      2008/02/16 09:46:33.3   0.0                          T                                       00149672
MURB    0.12   272 m   Sg      2008/02/16 09:46:36.0  -0.1                          T               767   .22 Md 1.6 Ml 2.4 00149673
SNTG    0.18    91 m   Pg      2008/02/16 09:46:34.1  -0.0                          T                                       00149674
SNTG    0.18    91 m   Sg      2008/02/16 09:46:37.5   0.0                          T                98   .28 Md 2.1        00149675
ASS     0.20   189 m   Pg      2008/02/16 09:46:34.4  -0.0                          T                                       00149676
ASS     0.20   189 m   Sg      2008/02/16 09:46:38.1   0.0                          T                27   .20 Md 2.0        00149677
PIEI    0.30   337 m   Pg      2008/02/16 09:46:36.2   0.0                          T                                       00149678
PIEI    0.30   337 m   Sg      2008/02/16 09:46:41.0   0.0                          T                56   .32 Md 1.3 Ml 1.6 00149679

.

EVENT 00011378
   Date       Time            Lat       Lon    Depth    Ndef Nsta Gap    Mag1  N    Mag2  N    Mag3  N  Author          ID
       rms   O.T. Error    Smajor Sminor Az        Err  mdist   Mdist     Err        Err        Err     Quality

2008/02/16 09:52:39.2      47.171    11.753      4.0      12    6 230  Md 2.5  5  Ml 1.8  1             ITA_NDC   00011378
     0.65    +-  0.48       6.5    3.2    4    +-    0    0.78   1.34   +-0.1      +-0.0      +-        m i ke

ITALY (Alpi Atesine)
Sta    Dist   EvAz     Phase         Date       Time  TRes  Azim  AzRes  Slow  SRes Def  SNR        Amp   Per   Mag1   Mag2 Arr ID
APPI    0.78   208 m   Pg      2008/02/16 09:52:54.2  -0.7                          T                                       00149681
APPI    0.78   208 m   Sg      2008/02/16 09:53:06.2  -0.2                          T                         Md 2.6        00149682
BRMO    1.17   234 m   Pg      2008/02/16 09:53:00.8  -0.8                          T                                       00149683
BRMO    1.17   234 m   Sg      2008/02/16 09:53:17.7  -0.3                          T                16   .44 Md 2.5 Ml 1.8 00149684
CTI     1.12   184 m   Pg      2008/02/16 09:53:00.9   0.1                          T                                       00149685
CTI     1.12   184 m   Sg      2008/02/16 09:53:17.3   0.7                          T                21   .20 Md 2.7        00149686
FUORN   1.16   242 m   Pg      2008/02/16 09:53:02.5   1.2                          T                                       00149687
FUORN   1.16   242 m   Sg      2008/02/16 09:53:18.4   0.8                          T                         Md 2.2        00149688
DAVOX   1.34   254 m   Pg      2008/02/16 09:53:04.3  -0.2                          T                                       00149689
DAVOX   1.34   254 m   Sg      2008/02/16 09:53:23.1   0.2                          T                         Md 2.5        00149690
PTCC    1.33   124 m   Pg      2008/02/16 09:53:04.5   0.1                          T                                       00149691
PTCC    1.33   124 m   Sg      2008/02/16 09:53:22.8  -0.0                          T                                       00149692

.

EVENT 00011379
   Date       Time            Lat       Lon    Depth    Ndef Nsta Gap    Mag1  N    Mag2  N    Mag3  N  Author          ID
       rms   O.T. Error    Smajor Sminor Az        Err  mdist   Mdist     Err        Err        Err     Quality

2008/02/16 18:34:38.8      39.062    16.044     34.8       6    3 266  Md 1.8  2  Ml 1.8  3             ITA_NDC   00011379
     0.33    +-  0.47       4.4    2.7   74    +- 5.22    0.23   0.57   +-0.0      +-0.2      +-        m i ke

ITALY (Costa calabra occidentale)
Sta    Dist   EvAz     Phase         Date       Time  TRes  Azim  AzRes  Slow  SRes Def  SNR        Amp   Per   Mag1   Mag2 Arr ID
CARO    0.23    35 mci Pg      2008/02/16 18:34:46.3   0.2                          T                                       00149694
CARO    0.23    35 m   Sg      2008/02/16 18:34:51.4  -0.1                          T               150   .31 Md 1.7 Ml 2.1 00149695
GRI     0.38   129 m   Pg      2008/02/16 18:34:48.0   0.1                          T                                       00149696
GRI     0.38   129 m   Sg      2008/02/16 18:34:54.5  -0.1                          T               192   1.7 Md 1.8 Ml 1.7 00149697
TIP     0.57    78 mci Pg      2008/02/16 18:34:50.5  -0.3                          T                                       00149698
TIP     0.57    78 m   Sg      2008/02/16 18:34:59.8   0.3                          T               182   1.9        Ml 1.7 00149699

.

EVENT 00011380
   Date       Time            Lat       Lon    Depth    Ndef Nsta Gap    Mag1  N    Mag2  N    Mag3  N  Author          ID
       rms   O.T. Error    Smajor Sminor Az        Err  mdist   Mdist     Err        Err        Err     Quality

2008/02/16 19:04:36.7      40.485    15.681     10.0       5    3 178  Md 1.8  3  Ml 1.2  3             ITA_NDC   00011380
     0.28    +-  0.18       1.9    0.8   15    +- 1.26    0.18   0.36   +-0.6      +-0.1      +-        m i ke

ITALY (Val d'Agri)
Sta    Dist   EvAz     Phase         Date       Time  TRes  Azim  AzRes  Slow  SRes Def  SNR        Amp   Per   Mag1   Mag2 Arr ID
MCEL    0.18   150 m   Pg      2008/02/16 19:04:41.2  -0.0                          T                                       00149701
MCEL    0.18   150 m   Sg      2008/02/16 19:04:44.7   0.1                          T                39   .14 Md 1.5 Ml 1.2 00149702
MRLC    0.31   332 m   Pg      2008/02/16 19:04:43.7   0.1                          T               355   3.1 Md 2.9 Ml 1.2 00149703
MGR     0.36   196 m   Pg      2008/02/16 19:04:44.3  -0.2                          T                                       00149704
MGR     0.36   196 m   Sg      2008/02/16 19:04:50.3   0.2                          T                48   .84 Md 1.8 Ml 1.4 00149705

.

