EVENT 00011420
   Date       Time            Lat       Lon    Depth    Ndef Nsta Gap    Mag1  N    Mag2  N    Mag3  N  Author          ID
       rms   O.T. Error    Smajor Sminor Az        Err  mdist   Mdist     Err        Err        Err     Quality

2008/02/19 22:38:06.4      42.647    13.641     19.0      14    7 143  Md 2.0  7  Ml 1.2  4             ITA_NDC   00011420
     0.45    +-  0.23       2.5    2.4   37    +- 3.06    0.04   0.65   +-0.3      +-0.4      +-        m i ke

ITALY (Monti della Laga)
Sta    Dist   EvAz     Phase         Date       Time  TRes  Azim  AzRes  Slow  SRes Def  SNR        Amp   Per   Mag1   Mag2 Arr ID
TERO    0.04   229 mci Pg      2008/02/19 22:38:09.7  -0.3                          T                                       00150249
TERO    0.04   229 m   Sg      2008/02/19 22:38:12.2  -0.3                          T               113   .15 Md 2.1 Ml 1.6 00150250
CAMP    0.20   237 m   Pg      2008/02/19 22:38:11.7  -0.1                          T                                       00150251
CAMP    0.20   237 m   Sg      2008/02/19 22:38:15.8   0.2                          T                 7   .30 Md 1.7 Ml 0.6 00150252
OFFI    0.29     7 mci Pg      2008/02/19 22:38:12.9  -0.1                          T                                       00150253
OFFI    0.29     7 m   Sg      2008/02/19 22:38:18.8   0.9                          T                         Md 1.7        00150254
VCEL    0.29   150 m   Pg      2008/02/19 22:38:13.0  -0.1                          T                                       00150255
VCEL    0.29   150 m   Sg      2008/02/19 22:38:18.4   0.4                          T                50   .28 Md 1.9 Ml 1.5 00150256
NRCA    0.43   296 mdi Pg      2008/02/19 22:38:14.8  -0.5                          T                                       00150257
NRCA    0.43   296 m   Sg      2008/02/19 22:38:21.9   0.1                          T                 5   .12 Md 2.3        00150258
LNSS    0.44   265 m   Pg      2008/02/19 22:38:15.4  -0.2                          T                                       00150259
LNSS    0.44   265 m   Sg      2008/02/19 22:38:22.7   0.4                          T                         Md 2.1        00150260
CESI    0.65   304 mdi Pg      2008/02/19 22:38:18.5  -0.5                          T                                       00150261
CESI    0.65   304 m   Sg      2008/02/19 22:38:28.6   0.4                          T                 5   .18 Md 2.0 Ml 1.0 00150262

.

EVENT 00011421
   Date       Time            Lat       Lon    Depth    Ndef Nsta Gap    Mag1  N    Mag2  N    Mag3  N  Author          ID
       rms   O.T. Error    Smajor Sminor Az        Err  mdist   Mdist     Err        Err        Err     Quality

2008/02/19 22:42:20.9      43.060    13.354      8.3      10    5 227  Md 1.9  5  Ml 1.0  4             ITA_NDC   00011421
     0.26    +-  0.21       2.8    1.2  101    +- 1.62    0.29   0.76   +-0.2      +-0.3      +-        m i ke

ITALY (Zona Ascoli Piceno)
Sta    Dist   EvAz     Phase         Date       Time  TRes  Azim  AzRes  Slow  SRes Def  SNR        Amp   Per   Mag1   Mag2 Arr ID
NRCA    0.29   218 m   Pg      2008/02/19 22:42:27.6   0.1                          T                                       00150264
NRCA    0.29   218 m   Sg      2008/02/19 22:42:32.5   0.2                          T                19   .08 Md 2.1        00150265
CESI    0.33   261 mdi Pg      2008/02/19 22:42:28.1  -0.3                          T                                       00150266
CESI    0.33   261 m   Sg      2008/02/19 22:42:33.7  -0.1                          T                 5   .16 Md 1.8 Ml 0.6 00150267
CING    0.34   340 m   Pg      2008/02/19 22:42:28.4  -0.1                          T                                       00150268
CING    0.34   340 m   Sg      2008/02/19 22:42:34.3   0.4                          T                12   .14 Md 1.7 Ml 1.0 00150269
LNSS    0.51   207 m   Pg      2008/02/19 22:42:31.2  -0.2                          T                                       00150270
LNSS    0.51   207 m   Sg      2008/02/19 22:42:39.5   0.3                          T                87   1.8 Md 1.8 Ml 1.3 00150271
PIEI    0.76   309 m   Pg      2008/02/19 22:42:35.6  -0.1                          T                                       00150272
PIEI    0.76   309 m   Sg      2008/02/19 22:42:46.6   0.0                          T                 5   .16 Md 2.0 Ml 1.1 00150273

.

EVENT 00011422
   Date       Time            Lat       Lon    Depth    Ndef Nsta Gap    Mag1  N    Mag2  N    Mag3  N  Author          ID
       rms   O.T. Error    Smajor Sminor Az        Err  mdist   Mdist     Err        Err        Err     Quality

2008/02/20 00:32:37.5      42.335    13.443      9.1      14    7 131  Md 1.8  6  Ml 1.0  5             ITA_NDC   00011422
     0.65    +-  0.17       2.8    2.0   22    +-  1.8    0.04   0.40   +-0.3      +-0.4      +-        m i ke

ITALY (Aquilano)
Sta    Dist   EvAz     Phase         Date       Time  TRes  Azim  AzRes  Slow  SRes Def  SNR        Amp   Per   Mag1   Mag2 Arr ID
AQU     0.04   302 m   Pg      2008/02/20 00:32:39.5  -0.1                          T                                       00150275
AQU     0.04   302 m   Sg      2008/02/20 00:32:40.4  -0.6                          T                         Md 2.0        00150276
FAGN    0.12   124 m   Pg      2008/02/20 00:32:41.1   0.2                          T                                       00150277
FAGN    0.12   124 m   Sg      2008/02/20 00:32:43.8   0.4                          T               185   .28        Ml 1.7 00150278
FIAM    0.25   255 m   Pg      2008/02/20 00:32:43.4  -0.0                          T                                       00150279
FIAM    0.25   255 m   Sg      2008/02/20 00:32:47.6  -0.1                          T                13   .32 Md 2.0 Ml 0.8 00150280
CAMP    0.20   353 m   Pg      2008/02/20 00:32:43.5   1.1                          T                                       00150281
CAMP    0.20   353 m   Sg      2008/02/20 00:32:46.4   0.4                          T                 5   .82 Md 1.4 Ml 0.2 00150282
TERO    0.31    22 m   Pg      2008/02/20 00:32:44.1  -0.5                          T                                       00150283
TERO    0.31    22 m   Sg      2008/02/20 00:32:48.9  -0.8                          T                15   .38 Md 1.9 Ml 1.0 00150284
VCEL    0.30    78 m   Pg      2008/02/20 00:32:44.3  -0.1                          T                                       00150285
VCEL    0.30    78 m   Sg      2008/02/20 00:32:49.4   0.0                          T                21   .36 Md 1.9 Ml 1.1 00150286
LNSS    0.40   312 m   Pg      2008/02/20 00:32:46.0  -0.1                          T                                       00150287
LNSS    0.40   312 m   Sg      2008/02/20 00:32:53.4   1.1                          T                         Md 1.5        00150288

.

EVENT 00011423
   Date       Time            Lat       Lon    Depth    Ndef Nsta Gap    Mag1  N    Mag2  N    Mag3  N  Author          ID
       rms   O.T. Error    Smajor Sminor Az        Err  mdist   Mdist     Err        Err        Err     Quality

2008/02/20 00:33:51.8      42.369    13.434      7.7       6    3 153  Md 1.7  3  Ml 0.9  3             ITA_NDC   00011423
     0.16    +-  0.26       1.7    1.4   57    +- 2.34    0.03   0.30   +-0.1      +-0.2      +-        m i ke

ITALY (Aquilano)
Sta    Dist   EvAz     Phase         Date       Time  TRes  Azim  AzRes  Slow  SRes Def  SNR        Amp   Per   Mag1   Mag2 Arr ID
AQU     0.03   238 m   Pg      2008/02/20 00:33:53.7   0.1                          T                                       00150290
AQU     0.03   238 m   Sg      2008/02/20 00:33:54.7  -0.1                          T               109   .33 Md 1.8 Ml 1.1 00150291
TERO    0.28    26 m   Pg      2008/02/20 00:33:58.3  -0.1                          T                                       00150292
TERO    0.28    26 m   Sg      2008/02/20 00:34:03.2   0.1                          T                 8   .44 Md 1.6 Ml 0.6 00150293
VCEL    0.30    85 m   Pg      2008/02/20 00:33:58.7  -0.1                          T                                       00150294
VCEL    0.30    85 m   Sg      2008/02/20 00:34:03.8   0.1                          T                58   1.8 Md 1.7 Ml 0.8 00150295

.

EVENT 00011424
   Date       Time            Lat       Lon    Depth    Ndef Nsta Gap    Mag1  N    Mag2  N    Mag3  N  Author          ID
       rms   O.T. Error    Smajor Sminor Az        Err  mdist   Mdist     Err        Err        Err     Quality

2008/02/20 00:46:11.7      39.851    16.042      5.8      13    7 251  Md 2.1  6  Ml 1.4  5             ITA_NDC   00011424
     0.35    +-  0.27       2.8    1.8   10    +- 1.62    0.22   0.51   +-0.1      +-0.3      +-        m i ke

ITALY (Pollino)
Sta    Dist   EvAz     Phase         Date       Time  TRes  Azim  AzRes  Slow  SRes Def  SNR        Amp   Per   Mag1   Mag2 Arr ID
CUC     0.22   310 m   Pg      2008/02/20 00:46:16.8  -0.0                          T                                       00150297
CUC     0.22   310 m   Sg      2008/02/20 00:46:20.6  -0.0                          T                         Md 2.2        00150298
SCHR    0.35     4 m   Pg      2008/02/20 00:46:19.1  -0.5                          T                                       00150299
SCHR    0.35     4 m   Sg      2008/02/20 00:46:25.0  -0.3                          T                13   .40 Md 2.1 Ml 1.0 00150300
SIRI    0.36   338 m   Pg      2008/02/20 00:46:19.9   0.1                          T                                       00150301
SIRI    0.36   338 m   Sg      2008/02/20 00:46:26.1   0.4                          T                42   .45 Md 2.1 Ml 1.5 00150302
ORI     0.37    57 m   Pg      2008/02/20 00:46:20.5   0.4                          T               182   .76        Ml 2.0 00150303
MTSN    0.47   332 m   Pg      2008/02/20 00:46:21.6  -0.3                          T                                       00150304
MTSN    0.47   332 m   Sg      2008/02/20 00:46:29.7   0.4                          T                19   .41 Md 2.2 Ml 1.3 00150305
MGR     0.47   308 m   Pg      2008/02/20 00:46:22.0   0.1                          T                                       00150306
MGR     0.47   308 m   Sg      2008/02/20 00:46:29.4   0.1                          T                18   .26 Md 1.9 Ml 1.3 00150307
MCEL    0.51   339 m   Pg      2008/02/20 00:46:22.2  -0.3                          T                                       00150308
MCEL    0.51   339 m   Sg      2008/02/20 00:46:30.5   0.1                          T                         Md 2.1        00150309

.

EVENT 00011425
   Date       Time            Lat       Lon    Depth    Ndef Nsta Gap    Mag1  N    Mag2  N    Mag3  N  Author          ID
       rms   O.T. Error    Smajor Sminor Az        Err  mdist   Mdist     Err        Err        Err     Quality

2008/02/20 01:07:23.0      42.327    13.456      7.2      32   21  57  Md 2.4 21  Ml 1.6  9             ITA_NDC   00011425
     0.50    +-  0.09       1.2    1.1   80    +- 1.08    0.05   1.06   +-0.2      +-0.3      +-        m i ke

ITALY (Aquilano)
Sta    Dist   EvAz     Phase         Date       Time  TRes  Azim  AzRes  Slow  SRes Def  SNR        Amp   Per   Mag1   Mag2 Arr ID
AQU     0.05   304 mci Pg      2008/02/20 01:07:25.2   0.3                          T                                       00150311
AQU     0.05   304 m   Sg      2008/02/20 01:07:26.2  -0.0                          T                         Md 2.6        00150312
CAMP    0.21   351 m   Pg      2008/02/20 01:07:28.2   0.2                          T                                       00150313
CAMP    0.21   351 m   Sg      2008/02/20 01:07:31.8   0.2                          T                40   .76 Md 2.4 Ml 1.1 00150314
FIAM    0.26   257 m   Pg      2008/02/20 01:07:29.0   0.1                          T                                       00150315
FIAM    0.26   257 m   Sg      2008/02/20 01:07:33.3  -0.0                          T               105   .32 Md 2.7 Ml 1.7 00150316
TERO    0.31    20 mci Pg      2008/02/20 01:07:29.8  -0.5                          T                                       00150317
TERO    0.31    20 m   Sg      2008/02/20 01:07:34.7  -0.8                          T               138   .36 Md 2.5 Ml 1.9 00150318
VCEL    0.29    77 m   Pg      2008/02/20 01:07:29.8   0.1                          T                                       00150319
VCEL    0.29    77 m   Sg      2008/02/20 01:07:35.0   0.4                          T               255   .62 Md 2.7 Ml 2.1 00150320
PTQR    0.31   188 m   Pg      2008/02/20 01:07:30.0  -0.1                          T                70   .40 Md 2.5        00150321
LNSS    0.41   312 m   Pg      2008/02/20 01:07:31.7  -0.4                          T                                       00150322
LNSS    0.41   312 m   Sg      2008/02/20 01:07:38.8   0.2                          T               114   .60 Md 2.5 Ml 1.9 00150323
VVLD    0.47   165 m   Pg      2008/02/20 01:07:32.6  -0.5                          T                                       00150324
VVLD    0.47   165 m   Sg      2008/02/20 01:07:39.6  -0.8                          T                37   .30 Md 2.4 Ml 1.6 00150325
INTR    0.46   133 m   Pg      2008/02/20 01:07:32.8   0.0                          T                                       00150326
INTR    0.46   133 m   Sg      2008/02/20 01:07:40.0   0.1                          T                         Md 2.0        00150327
CERT    0.52   223 m   Pg      2008/02/20 01:07:33.6  -0.3                          T                                       00150328
CERT    0.52   223 m   Sg      2008/02/20 01:07:41.5  -0.1                          T                39   .31 Md 2.2 Ml 1.7 00150329
NRCA    0.56   334 m   Pg      2008/02/20 01:07:34.3  -0.4                          T                                       00150330
NRCA    0.56   334 m   Sg      2008/02/20 01:07:43.1  -0.0                          T                 9   .24 Md 2.7        00150331
MNS     0.57   276 m   Pg      2008/02/20 01:07:34.6  -0.2                          T                16   .46 Md 2.4 Ml 1.3 00150332
MTCE    0.61   240 m   Pg      2008/02/20 01:07:35.9   0.5                          T                         Md 2.0        00150333
POFI    0.64   163 m   Pg      2008/02/20 01:07:36.0   0.1                          T                         Md 2.4        00150334
OFFI    0.63    15 m   Pg      2008/02/20 01:07:36.8   1.0                          T                         Md 2.3        00150335
SDI     0.67   157 m   Pg      2008/02/20 01:07:37.2   0.7                          T                18   .16 Md 2.7        00150336
CESI    0.79   329 m   Pg      2008/02/20 01:07:38.1  -0.4                          T                                       00150337
CESI    0.79   329 m   Sg      2008/02/20 01:07:51.0   1.2                          T                 8   .44 Md 2.7 Ml 1.2 00150338
CERA    0.84   150 m   Pg      2008/02/20 01:07:39.2  -0.2                          T                         Md 2.4        00150339
GIUL    0.78   191 m   Pg      2008/02/20 01:07:39.5   1.1                          T                         Md 2.1        00150340
MIDA    0.91   139 m   Pg      2008/02/20 01:07:40.4  -0.1                          T                         Md 2.3        00150341
CING    1.06   350 m   Pg      2008/02/20 01:07:43.3   0.1                          T                         Md 2.4        00150342

.

EVENT 00011426
   Date       Time            Lat       Lon    Depth    Ndef Nsta Gap    Mag1  N    Mag2  N    Mag3  N  Author          ID
       rms   O.T. Error    Smajor Sminor Az        Err  mdist   Mdist     Err        Err        Err     Quality

2008/02/20 01:43:45.8      45.750    11.059      2.0      12    7 134  Md 2.3  5  Ml 1.6  2             ITA_NDC   00011426
     0.81    +-  0.26       3.6    2.1  148    +-    0    0.30   1.03   +-0.3      +-0.0      +-        m i ke

ITALY (Prealpi venete)
Sta    Dist   EvAz     Phase         Date       Time  TRes  Azim  AzRes  Slow  SRes Def  SNR        Amp   Per   Mag1   Mag2 Arr ID
MAGA    0.30   275 m   Pg      2008/02/20 01:43:52.8   0.3                          T                                       00150344
MAGA    0.30   275 m   Sg      2008/02/20 01:43:57.1  -0.4                          T                73   .26        Ml 1.6 00150345
SALO    0.40   251 m   Pg      2008/02/20 01:43:54.7   0.0                          T                                       00150346
SALO    0.40   251 m   Sg      2008/02/20 01:44:00.4  -0.7                          T                         Md 1.8        00150347
CTI     0.51    54 m   Pg      2008/02/20 01:43:56.9  -0.2                          T                                       00150348
CTI     0.51    54 m   Sg      2008/02/20 01:44:03.6  -1.7                          T                14   .12 Md 2.6        00150349
SBPO    0.71   188 m   Pg      2008/02/20 01:44:00.8   0.3                          T                                       00150350
APPI    0.74     9 m   Pg      2008/02/20 01:44:01.4   0.4                          T                                       00150351
APPI    0.74     9 m   Sg      2008/02/20 01:44:12.3   0.1                          T                23   .40 Md 2.6 Ml 1.6 00150352
BRMO    0.87   327 m   Pg      2008/02/20 01:44:03.7   0.4                          T                                       00150353
BRMO    0.87   327 m   Sg      2008/02/20 01:44:15.3  -0.7                          T                         Md 2.2        00150354
FUORN   1.03   328 m   Pg      2008/02/20 01:44:07.2   1.2                          T                         Md 2.1        00150355

.

EVENT 00011427
   Date       Time            Lat       Lon    Depth    Ndef Nsta Gap    Mag1  N    Mag2  N    Mag3  N  Author          ID
       rms   O.T. Error    Smajor Sminor Az        Err  mdist   Mdist     Err        Err        Err     Quality

2008/02/20 02:02:53.9      41.751    14.197     14.9       8    4 233  Md 1.6  4  Ml 0.8  3             ITA_NDC   00011427
     0.41    +-  0.35       8.3    2.4    9    +-  4.5    0.06   0.44   +-0.2      +-0.1      +-        m i ke

ITALY (Sannio)
Sta    Dist   EvAz     Phase         Date       Time  TRes  Azim  AzRes  Slow  SRes Def  SNR        Amp   Per   Mag1   Mag2 Arr ID
RNI2    0.06   215 m   Pg      2008/02/20 02:02:57.1   0.1                          T                                       00150357
RNI2    0.06   215 m   Sg      2008/02/20 02:02:59.3   0.0                          T                23   .19 Md 1.5 Ml 0.8 00150358
MIDA    0.12   159 m   Pg      2008/02/20 02:02:57.9   0.2                          T                                       00150359
MIDA    0.12   159 m   Sg      2008/02/20 02:03:00.0  -0.4                          T                16   .24 Md 1.3 Ml 0.7 00150360
SDI     0.29   262 m   Pg      2008/02/20 02:03:01.0   0.5                          T                                       00150361
SDI     0.29   262 m   Sg      2008/02/20 02:03:05.0  -0.2                          T                 5   .16 Md 1.7        00150362
VVLD    0.44   286 m   Pg      2008/02/20 02:03:02.7  -0.3                          T                                       00150363
VVLD    0.44   286 m   Sg      2008/02/20 02:03:09.5  -0.1                          T               164   3.4 Md 1.8 Ml 1.0 00150364

.

