EVENT 00011388
   Date       Time            Lat       Lon    Depth    Ndef Nsta Gap    Mag1  N    Mag2  N    Mag3  N  Author          ID
       rms   O.T. Error    Smajor Sminor Az        Err  mdist   Mdist     Err        Err        Err     Quality

2008/02/17 12:41:31.1      45.901     7.097      7.2      41   28 121         0  Ml 3.3 18             ITA_NDC   00011388
     1.30    +-  0.22       4.1    2.2   98    +- 3.24    0.13   2.46   +-0.0      +-0.4      +-        m i ke

ITALY (Alpi Pennine)
Sta    Dist   EvAz     Phase         Date       Time  TRes  Azim  AzRes  Slow  SRes Def  SNR        Amp   Per   Mag1   Mag2 Arr ID
MRGE    0.13   191 m   Pg      2008/02/17 12:41:34.8   0.4                          T                                       00149809
MRGE    0.13   191 m   Sg      2008/02/17 12:41:37.1   0.2                          T             37058   .30        Ml 4.0 00149810
EMV     0.21   320 m   Pg      2008/02/17 12:41:36.1   0.0                          T                                       00149811
EMV     0.21   320 m   Sg      2008/02/17 12:41:39.2  -0.5                          T                                       00149812
LSD     0.44   177 m   Pg      2008/02/17 12:41:40.3  -0.3                          T                                       00149813
LSD     0.44   177 m   Sg      2008/02/17 12:41:46.1  -1.5                          T              2565   .23        Ml 3.4 00149814
MMK     0.62    76 m   Pg      2008/02/17 12:41:41.9  -1.8                          T                                       00149815
MMK     0.62    76 m   Sg      2008/02/17 12:41:50.1  -2.8                          T                                       00149816
TRAV    0.60   130 m   Pg      2008/02/17 12:41:42.3  -1.0                          T                                       00149817
TRAV    0.60   130 m   Sg      2008/02/17 12:41:49.6  -2.6                          T              1646   .38        Ml 3.4 00149818
ORO     0.67   114 m   Pg      2008/02/17 12:41:43.4  -1.2                          T               551   .24               00149819
RSP     0.76   171 m   Pg      2008/02/17 12:41:45.9  -0.3                          T                                       00149820
RSP     0.76   171 m   Sg      2008/02/17 12:41:55.4  -1.7                          T               881   .24        Ml 3.3 00149821
BNI     0.90   199 m   Pg      2008/02/17 12:41:48.7   0.2                          T                                       00149822
BNI     0.90   199 m   Sg      2008/02/17 12:42:00.3  -0.8                          T               263   .65        Ml 2.7 00149823
BLB     1.07   174 m   Pg      2008/02/17 12:41:51.7   0.3                          T                                       00149824
BLB     1.07   174 m   Sg      2008/02/17 12:42:05.9  -0.3                          T               575   .36        Ml 3.3 00149825
MONC    1.01   145 m   Pg      2008/02/17 12:41:52.0   1.6                          T               813   .38        Ml 3.4 00149826
VAI     1.16    91 m   Pg      2008/02/17 12:41:52.0  -1.0                          T                                       00149827
MUGIO   1.35    88 m   Pg      2008/02/17 12:41:55.7  -0.6                          T                                       00149828
DOI     1.40   176 m   Pg      2008/02/17 12:41:56.8  -0.3                          T                                       00149829
DOI     1.40   176 m   Sg      2008/02/17 12:42:15.7  -0.3                          T               407   .27        Ml 3.4 00149830
PZZ     1.39   179 m   Pg      2008/02/17 12:41:57.6   0.6                          T                                       00149831
PZZ     1.39   179 m   Sg      2008/02/17 12:42:16.0   0.2                          T               705   .63        Ml 3.5 00149832
TUE     1.66    69 m   Pg      2008/02/17 12:42:00.9  -0.4                          T               381   .44        Ml 3.4 00149833
STV     1.66   174 m   Pg      2008/02/17 12:42:01.5   0.1                          T               146   .74        Ml 2.9 00149834
PCP     1.70   143 m   Pg      2008/02/17 12:42:02.5   0.6                          T                                       00149835
PCP     1.70   143 m   Sg      2008/02/17 12:42:24.7   0.4                          T                89   .60        Ml 2.8 00149836
MDI     1.83    93 m   Pg      2008/02/17 12:42:03.8   0.2                          T                                       00149837
MDI     1.83    93 m   Sg      2008/02/17 12:42:27.8   0.3                          T               339   .52        Ml 3.4 00149838
QLNO    1.80   150 m   Pg      2008/02/17 12:42:03.9   0.6                          T                90   .45        Ml 2.9 00149839
IMI     2.07   164 m   Pg      2008/02/17 12:42:07.8   0.9                          T               235   .53        Ml 3.4 00149840
BOB     2.00   124 m   Pg      2008/02/17 12:42:08.5   2.5                          T                                       00149841
BERNI   2.09    75 m   Pg      2008/02/17 12:42:09.1   1.9                          T                                       00149842
BERNI   2.09    75 m   Sg      2008/02/17 12:42:35.1   1.5                          T                                       00149843
DAVOX   2.11    64 m   Pg      2008/02/17 12:42:09.6   2.1                          T                                       00149844
SC2M    2.28   130 m   Pg      2008/02/17 12:42:11.7   1.9                          T                                       00149845
FUORN   2.30    71 m   Pg      2008/02/17 12:42:12.5   2.3                          T                                       00149846
BRMO    2.34    75 m   Pg      2008/02/17 12:42:12.6   1.9                          T                75   .66        Ml 3.0 00149847
MABI    2.38    85 m   Pg      2008/02/17 12:42:12.6   1.4                          T                75   .60        Ml 3.0 00149848
MAGA    2.46    92 m   Pg      2008/02/17 12:42:12.7   0.2                          T               446   .52        Ml 3.8 00149849

.

EVENT 00011389
   Date       Time            Lat       Lon    Depth    Ndef Nsta Gap    Mag1  N    Mag2  N    Mag3  N  Author          ID
       rms   O.T. Error    Smajor Sminor Az        Err  mdist   Mdist     Err        Err        Err     Quality

2008/02/17 20:37:38.6      44.380    11.722     10.0       8    4 285  Md 2.0  4         0             ITA_NDC   00011389
     0.38    +-  0.50       5.6    2.9   24    +-    0    0.42   0.48   +-0.1      +-0.0      +-        m i ke

ITALY (Zona Bologna)
Sta    Dist   EvAz     Phase         Date       Time  TRes  Azim  AzRes  Slow  SRes Def  SNR        Amp   Per   Mag1   Mag2 Arr ID
SEI     0.42   219 m   Pg      2008/02/17 20:37:47.2  -0.2                          T                                       00149851
SEI     0.42   219 m   Sg      2008/02/17 20:37:53.6  -0.1                          T               156   .32 Md 2.1        00149852
VMG     0.44   197 m   Pg      2008/02/17 20:37:47.3  -0.4                          T                                       00149853
VMG     0.44   197 m   Sg      2008/02/17 20:37:54.1  -0.2                          T                16   .28 Md 1.9        00149854
FNVD    0.48   244 m   Pg      2008/02/17 20:37:48.3  -0.1                          T                                       00149855
FNVD    0.48   244 m   Sg      2008/02/17 20:37:56.1   0.6                          T                         Md 1.9        00149856
SFI     0.48   169 m   Pg      2008/02/17 20:37:48.9   0.4                          T                                       00149857
SFI     0.48   169 m   Sg      2008/02/17 20:37:55.7   0.0                          T                         Md 2.0        00149858

.

EVENT 00011390
   Date       Time            Lat       Lon    Depth    Ndef Nsta Gap    Mag1  N    Mag2  N    Mag3  N  Author          ID
       rms   O.T. Error    Smajor Sminor Az        Err  mdist   Mdist     Err        Err        Err     Quality

2008/02/17 21:53:15.7      43.112    13.022     10.3      12    6 183  Md 1.6  6  Ml 1.2  1             ITA_NDC   00011390
     0.44    +-  0.18       3.2    1.3   85    +- 1.44    0.14   0.61   +-0.2      +-0.0      +-        m i ke

ITALY (Appennino maceratese)
Sta    Dist   EvAz     Phase         Date       Time  TRes  Azim  AzRes  Slow  SRes Def  SNR        Amp   Per   Mag1   Mag2 Arr ID
CESI    0.14   219 m   Pg      2008/02/17 21:53:19.6   0.1                          T                                       00149860
CESI    0.14   219 m   Sg      2008/02/17 21:53:22.4   0.3                          T                52   .10 Md 1.4 Ml 1.2 00149861
SNTG    0.15   338 m   Pg      2008/02/17 21:53:19.6  -0.1                          T                                       00149862
SNTG    0.15   338 m   Sg      2008/02/17 21:53:22.4  -0.3                          T               103   .16 Md 1.4        00149863
ASS     0.27   260 m   Pg      2008/02/17 21:53:21.8  -0.2                          T                                       00149864
ASS     0.27   260 m   Sg      2008/02/17 21:53:26.0  -0.6                          T                 3   .16 Md 1.7        00149865
NRCA    0.29   166 m   Pg      2008/02/17 21:53:21.9  -0.3                          T                                       00149866
NRCA    0.29   166 m   Sg      2008/02/17 21:53:26.7  -0.2                          T                 3   .28 Md 1.8        00149867
LNSS    0.51   178 m   Pg      2008/02/17 21:53:25.9  -0.1                          T                                       00149868
LNSS    0.51   178 m   Sg      2008/02/17 21:53:34.0   0.5                          T                         Md 1.6        00149869
FSSB    0.61   343 m   Pg      2008/02/17 21:53:27.7   0.0                          T                                       00149870
FSSB    0.61   343 m   Sg      2008/02/17 21:53:37.2   0.8                          T                         Md 1.9        00149871

.

EVENT 00011391
   Date       Time            Lat       Lon    Depth    Ndef Nsta Gap    Mag1  N    Mag2  N    Mag3  N  Author          ID
       rms   O.T. Error    Smajor Sminor Az        Err  mdist   Mdist     Err        Err        Err     Quality

2008/02/18 05:20:55.1      44.531    10.306     23.5      15    8 113  Md 2.3  8         0             ITA_NDC   00011391
     0.60    +-  0.18       3.9    2.8   25    +-  4.5    0.13   1.26   +-0.3      +-0.0      +-        m i ke

ITALY (Frignano)
Sta    Dist   EvAz     Phase         Date       Time  TRes  Azim  AzRes  Slow  SRes Def  SNR        Amp   Per   Mag1   Mag2 Arr ID
ERBM    0.13   146 m   Pg      2008/02/18 05:20:59.5  -0.5                          T                                       00149873
ERBM    0.13   146 m   Sg      2008/02/18 05:21:04.1   0.4                          T                         Md 2.2        00149874
NOVE    0.40    47 m   Pg      2008/02/18 05:21:02.9  -0.7                          T                                       00149875
NOVE    0.40    47 m   Sg      2008/02/18 05:21:10.3   0.3                          T                         Md 2.2        00149876
VLC     0.38   171 m   Pg      2008/02/18 05:21:03.0  -0.4                          T                                       00149877
VLC     0.38   171 m   Sg      2008/02/18 05:21:08.8  -0.7                          T                         Md 2.2        00149878
BDI     0.51   156 m   Pg      2008/02/18 05:21:05.5  -0.1                          T                                       00149879
BDI     0.51   156 m   Sg      2008/02/18 05:21:13.0  -0.3                          T                         Md 2.2        00149880
ZCCA    0.51   110 m   Pg      2008/02/18 05:21:06.4   0.8                          T                         Md 2.0        00149881
SC2M    0.56   257 m   Pg      2008/02/18 05:21:06.8   0.4                          T                                       00149882
SC2M    0.56   257 m   Sg      2008/02/18 05:21:14.7  -0.0                          T                         Md 2.5        00149883
MAIM    0.63   168 m   Pg      2008/02/18 05:21:08.0   0.4                          T                                       00149884
MAIM    0.63   168 m   Sg      2008/02/18 05:21:17.5   0.9                          T                         Md 2.1        00149885
MAGA    1.26    10 m   Pg      2008/02/18 05:21:17.7  -0.4                          T                                       00149886
MAGA    1.26    10 m   Sg      2008/02/18 05:21:35.5   0.5                          T                         Md 2.8        00149887

.

EVENT 00011392
   Date       Time            Lat       Lon    Depth    Ndef Nsta Gap    Mag1  N    Mag2  N    Mag3  N  Author          ID
       rms   O.T. Error    Smajor Sminor Az        Err  mdist   Mdist     Err        Err        Err     Quality

2008/02/18 06:29:49.5      40.689    15.348      9.1       9    5 209  Md 2.0  5  Ml 1.6  4             ITA_NDC   00011392
     0.41    +-  0.30       8.1    1.7  161    +- 1.98    0.13   0.37   +-0.2      +-0.3      +-        m i ke

ITALY (Irpinia)
Sta    Dist   EvAz     Phase         Date       Time  TRes  Azim  AzRes  Slow  SRes Def  SNR        Amp   Per   Mag1   Mag2 Arr ID
SGO     0.13   194 m   Pg      2008/02/18 06:29:53.1   0.1                          T                                       00149889
SGO     0.13   194 m   Sg      2008/02/18 06:29:55.8   0.3                          T               118   .32 Md 2.2        00149890
MCRV    0.17   305 m   Pg      2008/02/18 06:29:53.4  -0.2                          T                                       00149891
MCRV    0.17   305 m   Sg      2008/02/18 06:29:57.3   0.7                          T               299   .30 Md 2.2 Ml 2.0 00149892
CDRU    0.20   190 m   Pg      2008/02/18 06:29:54.3  -0.0                          T                                       00149893
CDRU    0.20   190 m   Sg      2008/02/18 06:29:57.7  -0.2                          T                61   .20 Md 2.0 Ml 1.4 00149894
SNAL    0.26   336 m   Pg      2008/02/18 06:29:55.8   0.2                          T               300   1.5 Md 1.8 Ml 1.6 00149895
CMPR    0.37   185 m   Pg      2008/02/18 06:29:57.3  -0.3                          T                                       00149896
CMPR    0.37   185 m   Sg      2008/02/18 06:30:03.7   0.2                          T                22   .48 Md 1.8 Ml 1.2 00149897

.

EVENT 00011393
   Date       Time            Lat       Lon    Depth    Ndef Nsta Gap    Mag1  N    Mag2  N    Mag3  N  Author          ID
       rms   O.T. Error    Smajor Sminor Az        Err  mdist   Mdist     Err        Err        Err     Quality

2008/02/18 07:53:58.5      42.798    12.727     10.0      10    5 212  Md 2.1  5  Ml 1.5  2             ITA_NDC   00011393
     0.66    +-  0.38       5.7    2.5  128    +-    0    0.24   0.49   +-0.1      +-0.1      +-        m i ke

ITALY (Valle del Topino)
Sta    Dist   EvAz     Phase         Date       Time  TRes  Azim  AzRes  Slow  SRes Def  SNR        Amp   Per   Mag1   Mag2 Arr ID
CESI    0.24    32 m   Pg      2008/02/18 07:54:04.2  -0.1                          T                                       00149899
CESI    0.24    32 m   Sg      2008/02/18 07:54:08.8   0.3                          T                72   .48 Md 2.1 Ml 1.5 00149900
NRCA    0.29    83 m   Pg      2008/02/18 07:54:04.3  -0.7                          T                                       00149901
NRCA    0.29    83 m   Sg      2008/02/18 07:54:10.3   0.6                          T                13   .56 Md 2.0        00149902
ASS     0.27   348 m   Pg      2008/02/18 07:54:04.7  -0.0                          T                                       00149903
ASS     0.27   348 m   Sg      2008/02/18 07:54:08.7  -0.6                          T                18   .20 Md 2.2        00149904
LNSS    0.30   130 m   Pg      2008/02/18 07:54:06.0   0.8                          T                                       00149905
LNSS    0.30   130 m   Sg      2008/02/18 07:54:09.4  -0.8                          T                44   .46 Md 2.0 Ml 1.4 00149906
MURB    0.49   342 m   Pg      2008/02/18 07:54:08.4  -0.1                          T                                       00149907
MURB    0.49   342 m   Sg      2008/02/18 07:54:16.4   0.7                          T                         Md 2.2        00149908

.

EVENT 00011394
   Date       Time            Lat       Lon    Depth    Ndef Nsta Gap    Mag1  N    Mag2  N    Mag3  N  Author          ID
       rms   O.T. Error    Smajor Sminor Az        Err  mdist   Mdist     Err        Err        Err     Quality

2008/02/18 08:22:02.2      42.546    13.290     13.5      16    8  96  Md 1.8  8  Ml 1.6  3             ITA_NDC   00011394
     0.36    +-  0.09       1.3    1.1   27    +- 2.34    0.09   0.54   +-0.1      +-0.3      +-        m i ke

ITALY (Monti della Laga)
Sta    Dist   EvAz     Phase         Date       Time  TRes  Azim  AzRes  Slow  SRes Def  SNR        Amp   Per   Mag1   Mag2 Arr ID
CAMP    0.09    97 m   Pg      2008/02/18 08:22:05.5   0.1                          T                                       00149910
CAMP    0.09    97 m   Sg      2008/02/18 08:22:07.7  -0.0                          T                         Md 1.6        00149911
LNSS    0.19   287 m   Pg      2008/02/18 08:22:07.0   0.0                          T                                       00149912
LNSS    0.19   287 m   Sg      2008/02/18 08:22:10.5   0.0                          T               150   .16 Md 2.0 Ml 1.8 00149913
TERO    0.24    72 m   Pg      2008/02/18 08:22:07.7  -0.2                          T                                       00149914
TERO    0.24    72 m   Sg      2008/02/18 08:22:11.6  -0.4                          T                96   .44 Md 1.8 Ml 1.7 00149915
AQU     0.21   157 m   Pg      2008/02/18 08:22:07.7   0.5                          T                                       00149916
AQU     0.21   157 m   Sg      2008/02/18 08:22:11.5   0.5                          T                25   .24 Md 1.6        00149917
FIAM    0.31   205 m   Pg      2008/02/18 08:22:08.7  -0.2                          T                                       00149918
FIAM    0.31   205 m   Sg      2008/02/18 08:22:13.6  -0.1                          T                26   .34 Md 1.8 Ml 1.2 00149919
NRCA    0.31   336 m   Pg      2008/02/18 08:22:08.9  -0.1                          T                                       00149920
NRCA    0.31   336 m   Sg      2008/02/18 08:22:14.0  -0.0                          T                21   .16 Md 2.0        00149921
MNS     0.48   250 m   Pg      2008/02/18 08:22:11.5  -0.3                          T                                       00149922
MNS     0.48   250 m   Sg      2008/02/18 08:22:18.8  -0.0                          T                         Md 1.8        00149923
CESI    0.54   328 m   Pg      2008/02/18 08:22:12.7  -0.1                          T                                       00149924
CESI    0.54   328 m   Sg      2008/02/18 08:22:21.4   0.8                          T                         Md 1.9        00149925

.

