EVENT 00011405
   Date       Time            Lat       Lon    Depth    Ndef Nsta Gap    Mag1  N    Mag2  N    Mag3  N  Author          ID
       rms   O.T. Error    Smajor Sminor Az        Err  mdist   Mdist     Err        Err        Err     Quality

2008/02/19 08:44:12.0      43.202    10.798      3.0       7    4 166  Md 1.9  4  Ml 1.5  3             ITA_NDC   00011405
     0.59    +-  0.31       4.0    2.1  105    +-    0    0.41   0.61   +-0.1      +-0.2      +-        m i ke

ITALY (Colline Metallifere)
Sta    Dist   EvAz     Phase         Date       Time  TRes  Azim  AzRes  Slow  SRes Def  SNR        Amp   Per   Mag1   Mag2 Arr ID
CASP    0.41   173 m   Pg      2008/02/19 08:44:21.2   0.0                          T                                       00150032
CASP    0.41   173 m   Sg      2008/02/19 08:44:27.6  -0.4                          T                46   .38 Md 1.9 Ml 1.6 00150033
CSNT    0.45    53 m   Pg      2008/02/19 08:44:22.4   0.4                          T                                       00150034
CSNT    0.45    53 m   Sg      2008/02/19 08:44:28.9  -0.4                          T                34   .18 Md 2.0 Ml 1.5 00150035
PII     0.56   339 m   Pg      2008/02/19 08:44:23.7  -0.2                          T                34   .12 Md 1.9        00150036
ARCI    0.61   125 m   Pg      2008/02/19 08:44:25.6   0.8                          T                                       00150037
ARCI    0.61   125 m   Sg      2008/02/19 08:44:33.8  -0.5                          T                13   .28 Md 2.0 Ml 1.3 00150038

.

EVENT 00011406
   Date       Time            Lat       Lon    Depth    Ndef Nsta Gap    Mag1  N    Mag2  N    Mag3  N  Author          ID
       rms   O.T. Error    Smajor Sminor Az        Err  mdist   Mdist     Err        Err        Err     Quality

2008/02/19 10:18:01.8      42.436    12.577      9.6      11    7 235  Md 2.4  7  Ml 2.0  5             ITA_NDC   00011406
     0.43    +-  0.33       7.0    2.3   60    +- 3.24    0.09   1.10   +-0.1      +-0.5      +-        m i ke

ITALY (Monti Sabini)
Sta    Dist   EvAz     Phase         Date       Time  TRes  Azim  AzRes  Slow  SRes Def  SNR        Amp   Per   Mag1   Mag2 Arr ID
MNS     0.09   123 m   Pg      2008/02/19 10:18:04.6  -0.0                          T                                       00150040
MNS     0.09   123 m   Sg      2008/02/19 10:18:06.9   0.2                          T              1524   .28 Md 2.5 Ml 2.5 00150041
LNSS    0.38    64 m   Pg      2008/02/19 10:18:09.5  -0.4                          T                                       00150042
LNSS    0.38    64 m   Sg      2008/02/19 10:18:15.7  -0.2                          T               459   .24 Md 2.5 Ml 2.6 00150043
CESI    0.62    23 m   Pg      2008/02/19 10:18:13.4  -0.6                          T                                       00150044
CESI    0.62    23 m   Sg      2008/02/19 10:18:23.4   0.5                          T                33   .32 Md 2.3 Ml 1.7 00150045
CAMP    0.62    80 m   Pg      2008/02/19 10:18:14.1   0.0                          T                                       00150046
CAMP    0.62    80 m   Sg      2008/02/19 10:18:23.5   0.5                          T                 9   .32 Md 2.3 Ml 1.2 00150047
ASS     0.63     5 m   Pg      2008/02/19 10:18:14.2   0.0                          T                22   .28 Md 2.3        00150048
FAGN    0.76   103 m   Pg      2008/02/19 10:18:16.6   0.1                          T                         Md 2.4        00150049
PIEI    1.10   358 m   Pg      2008/02/19 10:18:22.7   0.5                          T                19   .34 Md 2.5 Ml 1.8 00150050

.

EVENT 00011407
   Date       Time            Lat       Lon    Depth    Ndef Nsta Gap    Mag1  N    Mag2  N    Mag3  N  Author          ID
       rms   O.T. Error    Smajor Sminor Az        Err  mdist   Mdist     Err        Err        Err     Quality

2008/02/19 12:02:38.6      42.814    12.883      4.9      10    5 127  Md 2.0  5  Ml 1.2  1             ITA_NDC   00011407
     0.27    +-  0.12       1.8    1.1  139    +- 1.98    0.17   0.76   +-0.2      +-0.0      +-        m i ke

ITALY (Val Nerina)
Sta    Dist   EvAz     Phase         Date       Time  TRes  Azim  AzRes  Slow  SRes Def  SNR        Amp   Per   Mag1   Mag2 Arr ID
NRCA    0.17    84 m   Pg      2008/02/19 12:02:42.6   0.0                          T                                       00150052
NRCA    0.17    84 m   Sg      2008/02/19 12:02:45.3  -0.1                          T                51   .08 Md 2.2        00150053
CESI    0.19     5 m   Pg      2008/02/19 12:02:43.0  -0.0                          T                                       00150054
CESI    0.19     5 m   Sg      2008/02/19 12:02:46.1  -0.1                          T                         Md 1.9        00150055
ASS     0.30   326 m   Pg      2008/02/19 12:02:45.5   0.2                          T                                       00150056
ASS     0.30   326 m   Sg      2008/02/19 12:02:50.1  -0.2                          T                14   .24 Md 1.7        00150057
MNS     0.45   199 m   Pg      2008/02/19 12:02:48.4  -0.2                          T                                       00150058
MNS     0.45   199 m   Sg      2008/02/19 12:02:56.0   0.1                          T                15   .32 Md 1.8 Ml 1.2 00150059
PIEI    0.76   341 m   Pg      2008/02/19 12:02:54.3   0.4                          T                                       00150060
PIEI    0.76   341 m   Sg      2008/02/19 12:03:04.7  -0.4                          T                         Md 2.2        00150061

.

EVENT 00011408
   Date       Time            Lat       Lon    Depth    Ndef Nsta Gap    Mag1  N    Mag2  N    Mag3  N  Author          ID
       rms   O.T. Error    Smajor Sminor Az        Err  mdist   Mdist     Err        Err        Err     Quality

2008/02/19 13:37:36.5      43.817    12.864      7.5       8    4 275  Md 2.1  4  Ml 1.4  2             ITA_NDC   00011408
     0.46    +-  0.51       5.7    2.3  105    +- 2.16    0.14   0.54   +-0.1      +-0.2      +-        m i ke

ITALY (Metauro)
Sta    Dist   EvAz     Phase         Date       Time  TRes  Azim  AzRes  Slow  SRes Def  SNR        Amp   Per   Mag1   Mag2 Arr ID
FSSB    0.14   207 m   Pg      2008/02/19 13:37:40.1   0.1                          T                                       00150063
FSSB    0.14   207 m   Sg      2008/02/19 13:37:42.4  -0.1                          T                         Md 2.2        00150064
PIEI    0.37   220 m   Pg      2008/02/19 13:37:44.3  -0.4                          T                                       00150065
PIEI    0.37   220 m   Sg      2008/02/19 13:37:50.3  -0.4                          T                         Md 2.2        00150066
CING    0.50   151 m   Pg      2008/02/19 13:37:47.0  -0.0                          T                                       00150067
CING    0.50   151 m   Sg      2008/02/19 13:37:54.9   0.2                          T                14   .20 Md 1.9 Ml 1.2 00150068
BADI    0.54   236 m   Pg      2008/02/19 13:37:47.8   0.1                          T                                       00150069
BADI    0.54   236 m   Sg      2008/02/19 13:37:56.6   0.7                          T                28   .30 Md 2.0 Ml 1.6 00150070

.

EVENT 00011409
   Date       Time            Lat       Lon    Depth    Ndef Nsta Gap    Mag1  N    Mag2  N    Mag3  N  Author          ID
       rms   O.T. Error    Smajor Sminor Az        Err  mdist   Mdist     Err        Err        Err     Quality

2008/02/19 13:52:58.0      46.385    10.879     12.0      23   12 129  Md 2.5 10  Ml 2.3  6             ITA_NDC   00011409
     0.56    +-  0.11       1.6    1.4  167    +- 3.96    0.26   1.35   +-0.2      +-0.2      +-        m i ke

ITALY (Alpi Retiche)
Sta    Dist   EvAz     Phase         Date       Time  TRes  Azim  AzRes  Slow  SRes Def  SNR        Amp   Per   Mag1   Mag2 Arr ID
APPI    0.26    69 m   Pg      2008/02/19 13:53:03.9   0.1                          T                                       00150072
APPI    0.26    69 m   Sg      2008/02/19 13:53:07.9  -0.3                          T               388   .26        Ml 2.3 00150073
BRMO    0.36   285 m   Pg      2008/02/19 13:53:05.6  -0.0                          T                                       00150074
BRMO    0.36   285 m   Sg      2008/02/19 13:53:10.3  -0.8                          T               275   .24 Md 2.6 Ml 2.3 00150075
MABI    0.42   218 m   Pg      2008/02/19 13:53:06.1  -0.5                          T                                       00150076
MABI    0.42   218 m   Sg      2008/02/19 13:53:11.4  -1.4                          T               173   .16 Md 2.4 Ml 2.2 00150077
FUORN   0.48   299 m   Pg      2008/02/19 13:53:07.9   0.1                          T                                       00150078
FUORN   0.48   299 m   Sg      2008/02/19 13:53:14.4  -0.4                          T                         Md 2.2        00150079
BERNI   0.59   273 m   Pg      2008/02/19 13:53:09.6   0.0                          T                                       00150080
BERNI   0.59   273 m   Sg      2008/02/19 13:53:17.1  -0.9                          T                         Md 2.1        00150081
MAGA    0.63   196 m   Pg      2008/02/19 13:53:10.2  -0.1                          T                                       00150082
MAGA    0.63   196 m   Sg      2008/02/19 13:53:19.1  -0.1                          T               390   .28 Md 2.7 Ml 2.8 00150083
CTI     0.63   122 m   Pg      2008/02/19 13:53:10.6   0.4                          T                                       00150084
CTI     0.63   122 m   Sg      2008/02/19 13:53:18.6  -0.5                          T                77   .12 Md 2.7        00150085
SALO    0.80   198 m   Pg      2008/02/19 13:53:13.5   0.3                          T                                       00150086
SALO    0.80   198 m   Sg      2008/02/19 13:53:25.1   0.8                          T                         Md 2.2        00150087
DAVOX   0.79   300 m   Pg      2008/02/19 13:53:13.5   0.5                          T                                       00150088
DAVOX   0.79   300 m   Sg      2008/02/19 13:53:24.1   0.2                          T                                       00150089
MDI     1.01   233 m   Pg      2008/02/19 13:53:17.1   0.3                          T                                       00150090
MDI     1.01   233 m   Sg      2008/02/19 13:53:31.0   0.5                          T                40   .27 Md 2.4 Ml 2.1 00150091
TUE     1.06   275 m   Pg      2008/02/19 13:53:17.5  -0.0                          T                                       00150092
TUE     1.06   275 m   Sg      2008/02/19 13:53:32.0   0.2                          T                19   .41 Md 2.6 Ml 1.8 00150093
MUGIO   1.35   251 m   Pg      2008/02/19 13:53:23.0   0.4                          T                         Md 2.8        00150094

.

EVENT 00011410
   Date       Time            Lat       Lon    Depth    Ndef Nsta Gap    Mag1  N    Mag2  N    Mag3  N  Author          ID
       rms   O.T. Error    Smajor Sminor Az        Err  mdist   Mdist     Err        Err        Err     Quality

2008/02/19 14:06:11.9      39.094    16.549     20.3       6    3 184  Md 1.6  3  Ml 1.4  3             ITA_NDC   00011410
     0.12    +-  0.19       2.0    1.3   63    +-  3.6    0.12   0.30   +-0.1      +-0.1      +-        m i ke

ITALY (La Sila)
Sta    Dist   EvAz     Phase         Date       Time  TRes  Azim  AzRes  Slow  SRes Def  SNR        Amp   Per   Mag1   Mag2 Arr ID
SERS    0.12   118 m   Pg      2008/02/19 14:06:16.3  -0.0                          T                                       00150096
SERS    0.12   118 m   Sg      2008/02/19 14:06:19.6   0.0                          T                70   .18 Md 1.5 Ml 1.5 00150097
TIP     0.18    62 m   Pg      2008/02/19 14:06:17.0  -0.1                          T                                       00150098
TIP     0.18    62 m   Sg      2008/02/19 14:06:20.9   0.0                          T                44   .24 Md 1.5 Ml 1.3 00150099
CARO    0.30   302 m   Pg      2008/02/19 14:06:19.0   0.1                          T                                       00150100
CARO    0.30   302 m   Sg      2008/02/19 14:06:23.8  -0.1                          T                35   .43 Md 1.7 Ml 1.4 00150101

.

EVENT 00011411
   Date       Time            Lat       Lon    Depth    Ndef Nsta Gap    Mag1  N    Mag2  N    Mag3  N  Author          ID
       rms   O.T. Error    Smajor Sminor Az        Err  mdist   Mdist     Err        Err        Err     Quality

2008/02/19 15:12:10.2      42.869    12.969     10.2      18    9 106  Md 2.1  9  Ml 1.5  4             ITA_NDC   00011411
     0.28    +-  0.08       1.4    0.9  179    +-  0.9    0.11   0.74   +-0.2      +-0.3      +-        m i ke

ITALY (Val Nerina)
Sta    Dist   EvAz     Phase         Date       Time  TRes  Azim  AzRes  Slow  SRes Def  SNR        Amp   Per   Mag1   Mag2 Arr ID
NRCA    0.11   108 m   Pg      2008/02/19 15:12:13.6   0.1                          T                                       00150103
NRCA    0.11   108 m   Sg      2008/02/19 15:12:15.8   0.0                          T                         Md 1.8        00150104
CESI    0.14   341 m   Pg      2008/02/19 15:12:14.2   0.1                          T                                       00150105
CESI    0.14   341 m   Sg      2008/02/19 15:12:16.8  -0.1                          T                         Md 2.2        00150106
LNSS    0.27   169 m   Pg      2008/02/19 15:12:16.3  -0.2                          T                                       00150107
LNSS    0.27   169 m   Sg      2008/02/19 15:12:20.8  -0.2                          T               220   .24 Md 2.3 Ml 2.1 00150108
ASS     0.30   310 m   Pg      2008/02/19 15:12:16.8  -0.1                          T                                       00150109
ASS     0.30   310 m   Sg      2008/02/19 15:12:21.7  -0.2                          T                         Md 1.9        00150110
SNTG    0.39   357 m   Pg      2008/02/19 15:12:18.1  -0.3                          T                                       00150111
SNTG    0.39   357 m   Sg      2008/02/19 15:12:24.2  -0.1                          T                         Md 2.1        00150112
TERO    0.53   118 m   Pg      2008/02/19 15:12:20.6  -0.2                          T                                       00150113
TERO    0.53   118 m   Sg      2008/02/19 15:12:28.9   0.3                          T                18   .19 Md 2.0 Ml 1.4 00150114
CING    0.53    18 m   Pg      2008/02/19 15:12:20.7  -0.2                          T                                       00150115
CING    0.53    18 m   Sg      2008/02/19 15:12:29.1   0.4                          T                         Md 1.9        00150116
MNS     0.53   204 m   Pg      2008/02/19 15:12:20.8   0.0                          T                                       00150117
MNS     0.53   204 m   Sg      2008/02/19 15:12:29.0   0.5                          T                21   .20 Md 2.2 Ml 1.5 00150118
PIEI    0.74   335 m   Pg      2008/02/19 15:12:24.9   0.5                          T                                       00150119
PIEI    0.74   335 m   Sg      2008/02/19 15:12:34.9   0.2                          T                 9   .40 Md 2.2 Ml 1.3 00150120

.

EVENT 00011412
   Date       Time            Lat       Lon    Depth    Ndef Nsta Gap    Mag1  N    Mag2  N    Mag3  N  Author          ID
       rms   O.T. Error    Smajor Sminor Az        Err  mdist   Mdist     Err        Err        Err     Quality

2008/02/19 17:04:17.1      42.006    13.247     10.0       6    3 188  Md 1.8  3  Ml 1.2  2             ITA_NDC   00011412
     0.38    +-  0.21       5.6    1.3  175    +-    0    0.12   0.31   +-0.0      +-0.1      +-        m i ke

ITALY (Monti Ernici-Simbruini)
Sta    Dist   EvAz     Phase         Date       Time  TRes  Azim  AzRes  Slow  SRes Def  SNR        Amp   Per   Mag1   Mag2 Arr ID
PTQR    0.12    82 m   Pg      2008/02/19 17:04:20.9   0.4                          T                                       00150122
PTQR    0.12    82 m   Sg      2008/02/19 17:04:22.4  -0.4                          T                61   .56 Md 1.7        00150123
CERT    0.20   254 m   Pg      2008/02/19 17:04:22.2   0.0                          T                                       00150124
CERT    0.20   254 m   Sg      2008/02/19 17:04:25.7  -0.1                          T                34   .35 Md 1.8 Ml 1.1 00150125
VVLD    0.31   116 m   Pg      2008/02/19 17:04:24.2   0.2                          T                                       00150126
VVLD    0.31   116 m   Sg      2008/02/19 17:04:29.1  -0.1                          T                30   .48 Md 1.8 Ml 1.3 00150127

.

